title,full_title,address,phones,tags,website,vk,facebook,youtube,instagram,description,profile_picture,route,sledge_hockey,sledge_hockey_link,metro,court_size,city,lat,lan,gallery,mails,whats_app,tiktok,classmates,twitter
Ледовая арена Айсберг Химки,Ледовая арена Айсберг Химки,"г.Химки, ул. ул. Пожарского, вл. 22а, кор. -",{+7 (495) 740-64-47+7 (985) 364-43-34},"{Бросковая зона, Зона ОФП, Сухой лед, Гимнастический зал, Массовое катание, Хоккейное катание, Фигурное катание, Раздевалки, Кафе, Парковка, Заточка коньков, Душ, Инвентарь, Бесплатный Wi-Fi}",http://www.arenaiceberg.ru/,,https://www.facebook.com/%D0%90%D1%80%D0%B5%D0%BD%D0%B0-%D0%90%D0%B9%D1%81%D0%B1%D0%B5%D1%80%D0%B3-555553834648833,,http://www.instagram.com/arenaiceberg,"ДЛЯ РАСПИСАНИЯ И ЦЕН, А ТАКЖЕ ОНЛАЙН ЗАПИСИ НАЖМИТЕ КНОПКУ ""ЗАБРОНИРОВАТЬ ОНЛАЙН""  В РАЗДЕЛЕ ""РАСПИСАНИЕ""  ВЫШЕ

Крытый круглогодичный ледовый комплекс. Ледовая арена Айсберг расположена на севере Москвы на пересечении МКАД и Северно-Восточной хорды. В Ледовой арене Айсберг проводят занятия такие хоккейные школы, и секций фигурного катания для детей и взрослых, как Хоккейная школа HockeyWay, Школа фигурного катания Л. Пахомова «Динамо», Школа фигурного катания Гребенкиной, Школа фигурного катания Черкасовой и ряд других.  Если Вы хотите просто покататься на коньках, в ледовом комплексе также есть сеансы массового катания.  

Помимо ледовой арены и уютного кафе в ледовом комплексе Айсберг имеется свой специализированный центр хоккейной подготовки. Он разделен на 4 основных зоны: бросковая (3 зоны, тренировки проходят на коньках), зона катания и дриблинга (только на коньках), игровая зона (футбол, флорбол), зона ОФП. Можно арендовать весь зал целиком, а также отдельные зоны. Есть также гимнастический зал для фигуристов. При желании можно организовать индивидуальную тренировку или в мини-группе на льду или в центре хоккейной тренировки: бросковую тренировку, тренировку на технику катания, дриблинг и владение шайбой, бросковую тренировку.

Уютное кафе имеет прекрасный вид на ледовую арену. Ледовая арена имеет свою бесплатную парковку. Есть заточка коньков.",http://ledokat.ru/image/original/rink/1/5d17d3e8c0a715.36912173.jpg,https://arenaiceberg.ledokat.ru,,,{},,г.Химки,55.890068,37.486796,"{http://ledokat.ru/image/original/rink/1/5d0e3bb8205e44.06554499.jpg, http://ledokat.ru/image/original/rink/1/5d0e3bb88aa2f5.75114603.jpg, http://ledokat.ru/image/original/rink/1/5d0e3bb8e7f495.87147724.jpg}",{},,,,
Физкультурно-Спортивный комплекс САЛЮТ,Физкультурно-Спортивный комплекс САЛЮТ,"г.Долгопрудный, ул. пр-т Ракетостроителей, 4, кор. 1",{+7 (495) 576-02-92+7 (495) 576-10-00+7 (495) 576-12-32},"{Зона ОФП, Тренажерный зал, Гимнастический зал, Массовое катание, Хоккейное катание, Фигурное катание, Раздевалки, Парковка, Заточка коньков, Душ, Аренда коньков, Инвентарь}",http://www.dol-sport.ru,http://www.vk.com/stadionsalut,https://www.facebook.com/foksalut,http://www.youtube.com/channel/UCqHMjETwbCk50nT7IoRkrMg?view_as=subscriber,http://www.instagram.com/stadion_salut/,,http://ledokat.ru/image/original/rink/28/5d221dd7b3d7a9.11061498.jpg,https://katok-salyut.ledokat.ru,,,{},,г.Долгопрудный,55.935208,37.511212,"{http://ledokat.ru/image/original/rink/28/5d221dd647fd05.09654595.jpg, http://ledokat.ru/image/original/rink/28/5d221dd5ac7e82.42291235.jpg, http://ledokat.ru/image/original/rink/28/5d221dd5185070.47820222.jpg, http://ledokat.ru/image/original/rink/28/5d221dd6b1d5c7.80966776.jpg}",{},,,,
Каток Остров,Каток Остров,"г.Москва, ул. Остравитянова, 10",{+7 (495) 532-00-12+7 (495) 532-00-21},"{Зона ОФП, Зона СФП, Гимнастический зал, Массовое катание, Хоккейное катание, Фигурное катание, Раздевалки, Кафе, Парковка, Заточка коньков, Душ, Аренда коньков, Инвентарь}",https://sport-vsegda.ru/stadion_ostrovityanova,https://vk.com/sportvsegda_ru,https://www.facebook.com/sportvsegda.ru,,https://www.instagram.com/sportvsegda.ru/,,http://ledokat.ru/image/original/rink/39/5d3449bcf35d01.00634014.jpg,https://katok-ostrov.ledokat.ru,,,{Коньково},,г.Москва,55.638648,37.503891,"{http://ledokat.ru/image/original/rink/39/5d3449bd7f0ce4.92363586.jpg, http://ledokat.ru/image/original/rink/39/5d3449bc6b8642.88671259.jpg, http://ledokat.ru/image/original/rink/39/5d3449bbb37644.64926384.jpg}",{},,,,
ТВОЙ ЛЕД,ТВОЙ ЛЕД,"г.Москва, ул. Коровинское шоссе, 35, кор. 9",{+7 (905) 543-19-47},"{Бросковая зона, Зона ОФП, Зона СФП, Массовое катание, Хоккейное катание, Фигурное катание, Раздевалки, Кафе, Парковка, Заточка коньков, Душ, Инвентарь, Оплата картой}",,,,,,,http://ledokat.ru/image/original/rink/45/5f7340e911b9b8.05660970.jpg,https://tvoi-led.ledokat.ru,,,{Ховрино},,г.Москва,55.879389,37.506478,{},{},,,,
Спортивный комплекс 1 - ПРИМЕР,Спортивный комплекс 1 - ПРИМЕР,"г.Москва, ул. Ленинградское ш, 1",{+7 (000) 000-00-00},"{Бросковая зона, Зона ОФП, Гимнастический зал, Массовое катание, Хоккейное катание, Фигурное катание, Ночное катание, Раздевалки, Кафе, Парковка, Заточка коньков, Душ, Инвентарь}",http://ledokat.ru,,,,,Это тестовый пример страницы ледовой арены для демонстрации возможностей системы,http://ledokat.ru/image/original/rink/57/602ea1752a20e9.65974930.jpg,https://ledokat-primer.ledokat.ru,,,{Аэропорт Ховрино},,г.Москва,55.756994,37.614006,{},{},,,,
Genesis  Arena,Genesis  Arena,"г.Долгопрудный, ул. Береговой пр-д, 3, кор. А стр. 1",{+7 (916) 093-17-37+7 (929) 626-25-12},"{Зона ОФП, Зона СФП, Тренажерный зал, Массовое катание, Хоккейное катание, Фигурное катание, Ночное катание, Раздевалки, Кафе, Парковка, Заточка коньков, Душ, Инвентарь, Медкабинет, Оплата картой}",http://arenagenesis.ru,,,,https://www.instagram.com/arena_genesis/,"ЧТОБЫ УЗНАТЬ РАСПИСАНИЕ И ЦЕНЫ НАЖМИТЕ КНОПКУ ""ЗАБРОНИРОВАТЬ ОНЛАЙН"" ВЫШЕ.  

Genesis Arena - современный ледовый спортивный комплекс, предназначенный для тренировок, хоккеистов и хоккейных команд, тренировок по фигурному катанию, индивидуальных тренировок и подкаток, а также для проведения соревнований для хоккеистов и фигуристов. Genesis Arena расположена на севере Москвы в 5 минутах езды от МКАДа в г. Долгопрудный. В комплексе имеется два ледовых поля – Большая арена размерами 61/30м. и Малая арена 27/12м.  В Genesis Arena также есть зона ОФП, сауна, кафе, комфортабельные раздевалки. Есть профессиональная заточка коньков.

В Genesis Arena проводится обучение хоккею и фигурному катанию детей начиная с трех лет, есть своя школа по хоккею и школа по фигурному катанию. Тренировки детей и взрослых проходят под руководством опытных тренеров.

В Genesis Arena организованы сеансы массового катания на коньках для любителей, возможна организация массовых и культурных мероприятий на льду. А для веселых и романтичных натур Genesis Arena предлагает свидания, праздники и дискотеки на льду.

Для удобства клиентов Genesis Arena работает круглосуточно 24 часа и 7 дней в неделю.",http://ledokat.ru/image/original/rink/124/5d3492cadc9919.63000959.jpg,https://arena-genesis.ledokat.ru,,,{},,г.Долгопрудный,55.907561,37.490092,{http://ledokat.ru/image/original/rink/124/5dc034d551ab13.60322261.jpg},{},,,,
Реутов Арена,Реутов Арена,"г.Реутов, ул. Юбилейный проспект, 43",{+7 (993) 777-37-77},"{Бросковая зона, Зона ОФП, Хоккейное катание, Фигурное катание, Раздевалки, Кафе, Парковка, Душ, Инвентарь}",https://reutovarena.ru,https://vk.com/reutovarena,https://www.facebook.com/reutovarena,,https://www.instagram.com/reutov_arena,,http://ledokat.ru/image/original/rink/438/5d8fb8502c33b4.62860625.jpg,https://reutov-arena.ledokat.ru,,,{},,г.Реутов,55.752815,37.874652,"{http://ledokat.ru/image/original/rink/438/5d8fb84fd3d2b6.15570189.jpg, http://ledokat.ru/image/original/rink/438/5d8fb84f89a6c5.47546749.jpg}",{},,,,
Академия хоккея им В.В.Петрова,Академия хоккея им В.В.Петрова,"г.Красногорск, ул. Лесная, 1, кор. а",{+7 (495) 369-07-16},"{Бросковая зона, Зона ОФП, Зона СФП, Сухой лед, Тренажерный зал, Хоккейная беговая дорожка, Массовое катание, Хоккейное катание, Раздевалки, Парковка, Душ, Инвентарь}",http://www.petrovacademy.ru,https://vk.com/petrovacademy,https://www.facebook.com/petrovacademy/,,https://www.instagram.com/petrov_academy/,,http://ledokat.ru/image/original/rink/511/5ffc8311e198a1.80346750.jpg,https://hockeyacademypetrova.ledokat.ru,,,{},,г.Красногорск,55.830439,37.324960,{http://ledokat.ru/image/original/rink/511/5ffc83111d5278.63302500.jpg},{},,,,
КСП Текстильщик,КСП Текстильщик,"г.Королев, ул. Советская, 7",{+7 (910) 437-30-05},"{Массовое катание, Хоккейное катание}",,,,,,,http://ledokat.ru/image/original/rink/541/604a4da99014f9.83242898.jpg,https://tekstilzhik.ledokat.ru,,,{},,г.Королев,55.947868,37.871876,{},{},,,,
Хоккейная школа Hockey Way,Хоккейная школа Hockey Way,"г.Москва, ул. -",{+7 (495) 150-99-97},"{Бросковая зона, Зона ОФП, Зона СФП, Сухой лед, Хоккейное катание, Раздевалки, Душ, Инвентарь}",https://hockeyway.ru,https://vk.com/hockeyway,https://www.facebook.com/groups/hockeyway/,https://www.youtube.com/channel/UCAxeZx4rzpvb8COw1U6SAQg,https://www.instagram.com/ice_hockeyway/,"Наша школа уже 8 лет помогает юным хоккеистам решать эти проблемы в короткие сроки.
Каждому ребенку уделяется много времени и внимания, постоянный контроль правильности выполнения упражнения.На наших тренировках дети занимаются в группах численностью менее 30 человек и с ними работают 4-5 специалистов. Это является гарантией высокого внимания, исполнения и результата от наших тренировок. 

За 8 лет мы подготовили по методике А.В. Бирюкова много детей в ведущих СДЮШОРы Москвы и России , и все научились правильно кататься и владеть клюшкой, также всем детям привилась дисциплина, целеустремленность и улучшилось здоровье.

Основой подготовки является индивидуальный подход к игроку, тщательно продуманный план развития и его контроль в процессе обучения. Высококвалифицированный тренерский состав, использует методики Бирюкова Александра Викторовича, которые помогли Бирюкову вырастить звёздных игроков: Павел Буре, Андрей Скабелка, Петров Олег, Башкатов Егор, Звягин Сергей, Сапрыкин Олег и многих других хоккейных звезд! Здесь не просто учат кататься на коньках, владеть клюшкой и шайбой. В школе воспитываются лидеры, способные играть в одной команде!",http://ledokat.ru/image/original/rink/592/612cee30a3eb48.07794458.jpg,https://hockeyway.ledokat.ru,,,{},,г.Москва,55.797210,37.595402,"{http://ledokat.ru/image/original/rink/592/612ceecea28194.70663792.jpg, http://ledokat.ru/image/original/rink/592/612ceecf1d9c48.38587494.jpg, http://ledokat.ru/image/original/rink/592/612ceed012d3d6.27608788.jpg}",{},,,,
АПИА Арена,АПИА Арена,"г.Москва, ул. Яблочкова, 7",{+7 (495) 235-75-75},"{Бросковая зона, Зона ОФП, Сухой лед, Тренажерный зал, Гимнастический зал, Массовое катание, Хоккейное катание, Фигурное катание, Раздевалки, Кафе, Парковка, Заточка коньков, Душ, Инвентарь, Медкабинет, Оплата картой}",http://apiaarena.ru/,https://vk.com/apiamoscow,https://www.facebook.com/apiaarena/,https://www.youtube.com/channel/UCocNTRV_0z2etHoKCjyykRw,https://www.instagram.com/apiaarena/,"Ледовый дворец АПИА Арена - современный универсальный спортивный ледовый комплекс, расположенный в районе Бутырский г Москвы в непосредственной близости от метро «Тимирязевская», где созданы все условия для развития и повышения индивидуального мастерства и командных и индивидуальных тренировок юных хоккеистов и фигуристов, а также взрослых любителей хоккея фигурного катания. 

Помимо главной ледовой арены (60х30) и малого льда с возможностью индивидуальных занятий, АПИА Арена располагает спортивным залом, залом хореографии; тренажерным залом; бросковой зоной. В бросковой зоне хоккеисты могут оттачивать мастерство владения клюшкой, правильную постановку рук и тела при броске, пас и подкидку, кистевые, щелчки с ходу и многое другое. В АПИА Арена предлагаются тренировки для вратарей, тренировки для защитников, есть тренировки для начинающих хоккеистов, и для опытных любителей хоккея. 

В АПИА Арена возможна аренда льда и спортивных зон любителям хоккея и фигурного катания. В АПИА Арена  работает детская школа хоккея «АПИА» в которой занимаются юные хоккеисты начиная с 4-5 лет и своя школа фигурного катания. Тренеры по хоккею и фигурному катанию обладают высокой квалификацией и опытом и помогут повысить индивидуальный уровень мастерства как взрослым так и детям.

Ледовый дворец «АПИА Арена» предлагает также аренду льда и других помещений дворца для проведения корпоративных и развлекательных мероприятий на катке.
К услугам гостей также кафе, прокат и заточка коньков, собственная бесплатная парковка, спортивный магазин, медицинский кабинет и игровая комната для самых маленьких посетителей.",http://ledokat.ru/image/original/rink/8/5d17dde4729632.51982636.jpg,https://apia-arena.ledokat.ru,,,{Тимирязевская},,г.Москва,55.816768,37.579214,"{http://ledokat.ru/image/original/rink/8/5d17dde6a57ff8.54508740.jpg, http://ledokat.ru/image/original/rink/8/5d17dde77cd811.86428115.jpg, http://ledokat.ru/image/original/rink/8/5d17ddea61ad40.01101817.jpg, http://ledokat.ru/image/original/rink/8/5d17ddf0f25c92.52048595.jpg}",{},,,,
Каток Шайба,Каток Шайба,"г.Москва, ул. 71-й км МКАД, 16, кор. А",{+7 (985) 233-90-78},"{Хоккейное катание, Ночное катание, Раздевалки, Заточка коньков, Инвентарь}",http://shaiba.moscow,,,,https://www.instagram.com/shaiba.moscow/,,http://ledokat.ru/image/original/rink/22/5d221940840c43.79654990.jpg,https://katok-shaiba.ledokat.ru,,,{Сходненская},,г.Москва,55.858938,37.395185,{},{},,,,
Каток INNOVATION,Каток INNOVATION,"г.Москва, ул. Бережковская наб., 20, кор. 6",{+7 (999) 836-83-00},"{Бросковая зона, Зона ОФП, Зона СФП, Сухой лед, Хоккейное катание, Фигурное катание, Ночное катание, Раздевалки, Заточка коньков, Душ, Инвентарь}",http://www.innovation-hc.ru,https://vk.com/innovationhc,https://www.facebook.com/innovation.hc/,https://www.youtube.com/channel/UCJVQb_deFPsjkuOLObP0x5Q,https://www.instagram.com/innovationhc/,"Каток Innovation - это многофункциональный ледовый тренировочный центр, расположенный на Бережковской набережной, недалеко от Москва-Сити и Кутузовского проспекта. Каток Innovation предлагает широкие возможности для профессиональных занятий хоккеем и фигурным катанием, а также для проведения развлекательных мероприятий на льду.

Каток Innovation предлагает для индивидуальных и групповых тренировок по хоккею и фигурному катанию ледовое поле размером 35 х 16, бросковую зону и зону дриблинга для повышения индивидуального мастерства владения клюшкой и шайбой, тренажерный зал и зону ОФП. 

Опытные тренеры предлагают различные типы тренировок по хоккею для детей и взрослых для повышения техники катания и владения шайбой. обучения катанию на коньках и управления клюшкой. Тренировки включают следующие элементы: общая физическая подготовка с учетом индивидуальных особенностей ученика; проработка техники катания; работа над техникой броска; изучение приемов дриблинга; подготовка голкиперов.

Каток Innovation предоставляет в аренду лед и все спортивные зоны. Также возможна организация культурных и развлекательных мероприятий на льду. Для удобства клиентов Innovation открыт круглосуточно, 7 дней в неделю.",http://ledokat.ru/image/original/rink/31/5d2224a026c251.42250300.jpg,https://katok-innovation.ledokat.ru,,,{Киевская},,г.Москва,55.733457,37.547468,"{http://ledokat.ru/image/original/rink/31/5d22249de538b5.08410782.jpg, http://ledokat.ru/image/original/rink/31/5d22249e63e5c6.71533278.jpg, http://ledokat.ru/image/original/rink/31/5d22249ebc77d6.59141512.jpg, http://ledokat.ru/image/original/rink/31/5d22249f30bf45.94596598.jpg}",{},,,,
СК Прометей  Аrena Play,СК Прометей  Аrena Play,"г.Коммунарка, ул. п. Коммунарка, 11, кор. А",{+7 (495) 428-59-35},"{Тренажерный зал, Массовое катание, Хоккейное катание, Фигурное катание, Раздевалки, Кафе, Парковка, Душ, Аренда коньков, Инвентарь}",,https://vk.com/club67070446,https://www.facebook.com/gprometey/,,https://instagram.com/gprometey,"Современный спортивный комплекс с ледовой ареной, тренажёрным залом и другими спортивными залами. Приоритетное направление - фигурное катание, вместе с этим прекрасно подходит для тренировок различных форматов для хоккеистов всех возрастов и массового катания.",http://ledokat.ru/image/original/rink/36/5d3451f6e65aa0.30672299.jpg,https://arena-play.ledokat.ru,,,{},,г.Коммунарка,55.5704,37.47934,"{http://ledokat.ru/image/original/rink/36/5d3451f5d0da93.08070655.jpg, http://ledokat.ru/image/original/rink/36/5d3451f67c97a0.76446033.jpg}",{},,,,
Be Like Pro - Зеленоград,Be Like Pro - Зеленоград,"г.Зеленоград, ул. 16 мкр, 1628",{+7 (495) 432-44-82},"{Бросковая зона, Зона ОФП, Зона СФП, Сухой лед, Хоккейная беговая дорожка, Раздевалки, Душ}",http://zelenograd.belikepro.ru,https://vk.com/be_like_pro?m=86,https://www.facebook.com/belikepro?fref=ts,https://www.youtube.com/channel/UCIGQJUpBcuJQosxmfLB-CTg,https://www.instagram.com/belikepro/,,http://ledokat.ru/image/original/rink/451/5d952ca7141c98.68655220.jpg,https://belikepro-zelenograd.ledokat.ru,,,{},,г.Зеленоград,55.971572,37.153278,{},{},,,,
Москворечье Ледовый комплекс,Москворечье Ледовый комплекс,"г.Москва, ул. Москворечье, 12, кор. 4",{},"{Бросковая зона, Зона ОФП, Массовое катание, Хоккейное катание, Фигурное катание, Раздевалки, Кафе, Парковка, Заточка коньков, Душ, Инвентарь}",https://vremya-sporta.ru,,,,,,http://ledokat.ru/image/original/rink/508/5f8085e745c947.78878075.jpg,https://moskvorechye.ledokat.ru,,,{Кантемировская},,г.Москва,55.643622,37.661069,{http://ledokat.ru/image/original/rink/508/5f8085e7932198.76892785.jpg},{},,,,
Hockey Chance - Хоккейная школа,Hockey Chance - Хоккейная школа,"г.Москва, ул. а",{+7 (903) 180-15-05},"{Хоккейное катание, Парковка, Заточка коньков, Аренда коньков, Инвентарь}",https://hockeychance.ru,http://vk.com/hockeychance,https://www.facebook.com/groups/hockeychance/,https://www.youtube.com/user/thehockeychance,http://instagram.com/hockeychance,"Школа Hockey Chance приглашает вас влиться в ряды поклонников хоккея. У нас работают тренеры с высшим образованием и опытом игры в НХЛ, КХЛ, ВХЛ.
Индивидуальные и групповые тренировки по хоккею для взрослых любителей и детей. 
Школа основана профессиональными хоккеистами в 2012г.
В школе 4 любительские команды разного уровня подготовки.
Детские тренировки и игры.
Сборы зимой и летом.
Доп. Услуги:
-Аренда полевой и вратарской формы с доставкой
-Стирка полевой и вратарской формы с доставкой
-Хранение и доставка формы

hockeychance.ru
http://instagram.com/hockeychance
89031801505 - Мария/Дарина
С уважением «Hockey Chance»",http://ledokat.ru/image/original/rink/539/6047aabedbb506.47273806.jpg,https://hockeychance.ledokat.ru,,,{},,г.Москва,55.781084,37.466022,{},{},,,,https://twitter.com/Hockey_Chance
ВСК Металлист,ВСК Металлист,"г.Королев, ул. Орджоникидзе, 6",{+7 (495) 567-71-02},"{Зона ОФП, Тренажерный зал, Гимнастический зал, Массовое катание, Хоккейное катание, Раздевалки}",https://www.sportkorolev.ru/vskmet,,,,https://www.instagram.com/sport_korolev/,,http://ledokat.ru/image/original/rink/540/604a4c641b4401.60319322.jpg,https://metallist.ledokat.ru,,,{},,г.Королев,55.910215,37.856686,{},{},,,,
Ледовая арена им. Касатонова А.В.,Ледовая арена им. Касатонова А.В.,"г.Королев, ул. Октябрьский бульвар, 10",{+7 (495) 511-06-46+7 (495) 511-67-80},"{Зона ОФП, Зона СФП, Тренажерный зал, Гимнастический зал, Массовое катание, Хоккейное катание, Фигурное катание, Ночное катание, Раздевалки, Кафе, Парковка, Заточка коньков, Душ, Аренда коньков, Инвентарь, Оплата картой}",https://www.sportkorolev.ru/fokled,,,,https://www.instagram.com/sport_korolev/,,http://ledokat.ru/image/original/rink/548/60a6a15e2836a7.96248521.jpg,https://korolev-kasatonova-mbu.ledokat.ru,,,{},,г.Королев,55.917021,37.827410,"{http://ledokat.ru/image/original/rink/548/60a6a16024aed1.76036416.jpg, http://ledokat.ru/image/original/rink/548/60a6a1614f41d4.86205497.jpg}",{},,,,
Хоккейная академия Металлург - Москва,Хоккейная академия Металлург - Москва,"г.Москва, ул. Островитянова, 10",{+7 (949) 553-20-01},"{Хоккейное катание, Раздевалки, Душ, Инвентарь}",https://dahockey.ru/komandy-metallurg-moskva/,,,,,"Мы открываем набор в команды ребят 2008, 2009, 2010, 2011 и 2012 годов рождения. Уверены, что наши воспитанники со временем составят серьёзную конкуренцию любым командам и школам. И мы, и хоккеисты наших команд намерены с честью носить цвета именитого клуба и прославлять школу «Металлурга» на территории нашей страны и за её пределами. У нас уже есть коллектив самых юных хоккеистов, которые только делают первые шаги в хоккее – это дети из группы «Металлург-Москва KIDS».  

Важным событием является создание юниорской команды «Металлург-Москва». Защищать цвета клуба будут игроки 2004, 2005 и 2006 годов рождения! Создание юниорской команды позволит юным воспитанникам получить шанс перехода во взрослый хоккей, продолжить свою карьеру в клубах МХЛ, ВХЛ и КХЛ! Надеемся, что и в командах НХЛ мы со временем увидим фамилии игроков клуба «Металлург-Москва»!

В сезоне 2021/2022 команды «Металлург-Москва» примут участие в Открытом первенстве Москвы/Кубках по хоккею г.Москвы, Чемпионале МХЛ и в различных коммерческих турнирах.

ЗАПИСЬ НА ПРОСМОТР И ДОПОЛНИТЕЛЬНАЯ ИНФОРМАЦИЯ: 
+74955320018 (WhatsApp) администратор Анастасия 
+79262672988 спортивный директор Алексей Никитин
+79168622314 тренер Владимир Корсунов",http://ledokat.ru/image/original/rink/554/6127200bd748e8.16198934.jpg,https://metallurgmoscow.ledokat.ru,,,{Коньково Юго-Западная},,г.Москва,55.638489,37.503977,{},{},,,,
Дворец спорта Борисоглебский,Дворец спорта Борисоглебский,"г.Раменское, ул. Махова, 18, кор. 1",{+7 (496) 465-25-36+7 (496) 467-77-80},"{Зона ОФП, Массовое катание, Хоккейное катание, Фигурное катание, Раздевалки, Душ, Инвентарь, Медкабинет}",http://dsbg.ru/o-nas/ledovaya-arena-fok/,https://vk.com/clubdsbg,https://www.facebook.com/borisoglebskey/,,https://www.instagram.com/dsbgru/,,http://ledokat.ru/image/original/rink/24/5d221bb789c0c3.49493398.jpg,https://borisoglebskey.ledokat.ru,,,{},,г.Раменское,55.577633,38.218249,{http://ledokat.ru/image/original/rink/24/5d221bb7ddc3f2.98019143.jpg},{},,,,
СПОРТТЕХ Арена,СПОРТТЕХ Арена,"г.Москва, ул. Вилиса Лациса, 2, кор. Б",{+7 (499) 938-44-84},"{Зона ОФП, Массовое катание, Хоккейное катание, Фигурное катание, Раздевалки, Кафе, Парковка, Заточка коньков, Душ, Бесплатный Wi-Fi, Оплата картой}",https://spartak-sporttech.ru,https://vk.com/sporttech_arenas,https://www.facebook.com/sporttecharenas,,https://www.instagram.com/sporttech_arenas/,,http://ledokat.ru/image/original/rink/360/5d934d329f4ee8.96775756.jpg,https://sportteh-arena.ledokat.ru,,,{Планерная},,г.Москва,55.866591,37.432870,{http://ledokat.ru/image/original/rink/360/5d934d2fa54cc3.00647870.jpg},{},,,,
ВТБ Арена,ВТБ Арена,"г.Москва, ул. Ленинградский проспект, 36, кор. 1",{+7 (499) 450-57-56},"{Раздевалки, Кафе, Парковка, Душ, Медкабинет, Оплата картой}",https://arena-vtb.com/,,,,,,http://ledokat.ru/image/original/rink/374/5d87bcb13eee04.40283327.jpg,https://vtb-arena.ledokat.ru,,,{Динамо},,г.Москва,55.791055,37.559316,{http://ledokat.ru/image/original/rink/374/5d87bcb0e3f953.50818926.jpg},{},,,,
Крытый тренировочный каток им. А. С. Ионова,Крытый тренировочный каток им. А. С. Ионова,"г.Электросталь, ул. Спортивная, 10",{+7 (496) 575-37-70},"{Массовое катание, Хоккейное катание, Фигурное катание, Раздевалки, Душ}",https://mirsportastal.ru,,,,,,http://ledokat.ru/image/original/rink/450/5d94ed72a4bc18.72420205.jpg,https://katok-ionova.ledokat.ru,,,{},,г.Электросталь,55.796936,38.477709,{http://ledokat.ru/image/original/rink/450/5d94ed73587ae3.68767732.jpg},{},,,,
Каток в парке Петровский,Каток в парке Петровский,"г.Москва, ул. Лазо, 7",{+7 (495) 309-53-42},"{Массовое катание, Раздевалки, Заточка коньков, Аренда коньков}",,,,,,Открытый сезонный каток в парке Петровский,http://ledokat.ru/image/original/rink/565/612766ff400172.25171710.jpg,https://petrovski.ledokat.ru,,,{},,г.Москва,55.738632,37.775999,{},{},,,,
Дворовый каток Волгоградский проспект 53,Дворовый каток Волгоградский проспект 53,"г.Москва, ул. Волгоградский проспект, 53",{+7 (499) 176-81-78},{Массовое катание},,,,,,,http://ledokat.ru/image/original/rink/618/613218e616e4c6.69834623.jpg,https://dvorvolgogradskijprospekt.ledokat.ru,,,{},,г.Москва,55.709931,37.732638,{},{},,,,
Дворовый каток ул Декабристов 29а,Дворовый каток ул Декабристов 29а,"г.Москва, ул. Декабристов, 29, кор. А",{+7 (499) 907-21-08},"{Массовое катание, Раздевалки, Заточка коньков, Аренда коньков}",,,,,,,http://ledokat.ru/image/original/rink/624/613222dc4b1257.42474775.jpg,https://dvordekabristov.ledokat.ru,,,{},,г.Москва,59.926115,30.293572,{},{},,,,
Дворовый каток ул Житная 10,Дворовый каток ул Житная 10,"г.Москва, ул. Житная, 10",{+7 (495) 951-86-00},{Массовое катание},,,,,,,http://ledokat.ru/image/original/rink/627/613226e9b8d1f7.58858472.jpg,https://dvorzhitnaja.ledokat.ru,,,{},,г.Москва,55.730319,37.618947,{},{},,,,
Дворовый каток ул Затонная 22,Дворовый каток ул Затонная 22,"г.Москва, ул. Затонная, 22",{+7 (499) 617-21-11},"{Массовое катание, Раздевалки, Заточка коньков, Аренда коньков}",,,,,,,http://ledokat.ru/image/original/rink/629/61322e0c42dee3.08589234.jpg,https://dvorzatonnaja.ledokat.ru,,,{},,г.Москва,55.674225,37.688054,{},{},,,,
Дворовый каток ул Краснодарская 72к3,Дворовый каток ул Краснодарская 72к3,"г.Москва, ул. Краснодарская, 72, кор. 3",{+7 (499) 722-74-75},{Массовое катание},,,,,,,http://ledokat.ru/image/original/rink/639/6132389851fac5.53413959.jpg,https://dvorkrasnodarskaja.ledokat.ru,,,{},,г.Москва,55.668148,37.779062,{},{},,,,
Русь Ледовый дворец,Русь Ледовый дворец,"г.Москва, ул. Воронежская, 13, кор. 3",{+7 (495) 399-13-27},"{Зона ОФП, Хоккейное катание, Фигурное катание, Раздевалки, Кафе, Парковка, Заточка коньков, Душ, Инвентарь, Медкабинет, Оплата картой}",https://www.roller.ru/katki/ledovyiy_dvorets_rus,,,,,,http://ledokat.ru/image/original/rink/423/5d890f4e06ee79.62471240.jpg,https://ledovy-rus.ledokat.ru,,,{},,г.Москва,55.61145,37.735027,"{http://ledokat.ru/image/original/rink/423/5d890f6c500ee5.41085942.jpg, http://ledokat.ru/image/original/rink/423/5d890f973bc6d2.14679940.jpg}",{},,,,
Ледовый дворец АРКТИКА,Ледовый дворец АРКТИКА,"г.Видное, ул. Зеленый переулок, 10",{+7 (498) 618-49-54+7 (498) 618-49-55},"{Тренажерный зал, Гимнастический зал, Массовое катание, Хоккейное катание, Фигурное катание, Раздевалки, Кафе, Парковка, Заточка коньков, Душ, Аренда коньков, Инвентарь, Медкабинет}",http://katokvidnoe.ru,https://vk.com/ldarctica,https://www.facebook.com/profile.php?id=100021456768693/,,https://www.instagram.com/arctica_ice_fitness_vidnoe/,,http://ledokat.ru/image/original/rink/448/5d94b25fa75219.39329770.jpg,https://vidnoe-arktika.ledokat.ru,,,{},,г.Видное,55.561512,37.712434,{},{},,,,
ФОК Ледовая арена Ногинск,ФОК Ледовая арена Ногинск,"г.Ногинск, ул. Климова, 48, кор. А",{+7 (496) 519-39-47},"{Бросковая зона, Зона ОФП, Тренажерный зал, Гимнастический зал, Массовое катание, Хоккейное катание, Фигурное катание, Раздевалки, Кафе, Парковка, Заточка коньков, Душ, Аренда коньков, Инвентарь, Медкабинет, Оплата картой}",,https://vk.com/dss_bgo,,,https://www.instagram.com/dssbgo/,,http://ledokat.ru/image/original/rink/525/600ef6fcbe3659.10066472.jpg,https://ledovaia-arena-noginsk.ledokat.ru,,,{},,г.Ногинск,55.866738,38.459357,{},{},,,,
Каток в Лианозовском парке,Каток в Лианозовском парке,"г.Москва, ул. Угличская, 13",{+7 (499) 908-35-00},"{Массовое катание, Раздевалки, Заточка коньков, Аренда коньков}",,,,,,Открытый платный каток в Лианозовском парке,http://ledokat.ru/image/original/rink/575/6129fa4fe7f578.30254753.jpg,https://Lianozovo.ledokat.ru,,,{},,г.Москва,55.900325,37.567204,{},{},,,,
Спортивный комплекс образовательного учреждения ул. Проходчиков 9,Спортивный комплекс образовательного учреждения ул. Проходчиков 9,"г.Москва, ул. Проходчиков, 9",{+7 (499) 182-19-44},{},,,,,,Открытый бесплатный дворовый каток,http://ledokat.ru/image/original/rink/581/612a0fa72c7731.86611815.jpg,https://dvorprokhodchikov.ledokat.ru,,,{},,г.Москва,55.874258,37.719172,{},{},,,,
Дворовый каток 5-я улица Соколиной Горы 21к3,Дворовый каток 5-я улица Соколиной Горы 21к3,"г.Москва, ул. 5-я улица Соколиной Горы, 21, кор. 3",{+7 (499) 785-02-91},{Массовое катание},,,,,,,http://ledokat.ru/image/original/rink/601/6130e37a320686.29606563.jpg,https://dvor5jaulicasokolinojgory.ledokat.ru,,,{},,г.Москва,55.765235,37.737003,{},{},,,,
Каток Ростокинский акведук,Каток Ростокинский акведук,"г.Москва, ул. Бажова, 2",{+7 (495) 602-85-34},{Массовое катание},,,,,,,http://ledokat.ru/image/original/rink/607/6130eab3d29cb0.65664103.jpg,https://katokrostokinskijakveduk.ledokat.ru,,,{},,г.Москва,55.829896,37.65911,{},{},,,,
Дворовый каток ул Барышиха 33к1,Дворовый каток ул Барышиха 33к1,"г.Москва, ул. Барышиха, 33, кор. 1",{+7 (495) 753-07-11},{Массовое катание},,,,,,,http://ledokat.ru/image/original/rink/609/6132069a234a48.37587277.jpg,https://dvorbaryshiha.ledokat.ru,,,{},,г.Москва,55.84675,37.341412,{},{},,,,
Дворовый каток Зеленоград к2034,Дворовый каток Зеленоград к2034,"г.Москва, ул. Зеленоград, 2034",{+7 (499) 717-75-10},{Массовое катание},,,,,,,http://ledokat.ru/image/original/rink/633/61323231643531.56267061.jpg,https://dvorzelenograd2034.ledokat.ru,,,{},,г.Москва,55.972358,37.169403,{},{},,,,
Дворовый каток ул Лавочкина 6к1,Дворовый каток ул Лавочкина 6к1,"г.Москва, ул. Лавочкина, 6, кор. 1",{+7 (495) 456-06-81},"{Массовое катание, Раздевалки}",,,,,,,http://ledokat.ru/image/original/rink/645/61323ee5a03538.06962839.jpg,https://dvorlavochkina.ledokat.ru,,,{},,г.Москва,55.850626,37.504061,{},{},,,,
Арена Мытищи,Арена Мытищи,"г.Мытищи, ул. Летная, 17",{+7 (495) 223-98-80+7 (905) 715-73-72},"{Зона ОФП, Тренажерный зал, Гимнастический зал, Массовое катание, Хоккейное катание, Фигурное катание, Ночное катание, Раздевалки, Кафе, Заточка коньков, Душ, Аренда коньков, Инвентарь, Оплата картой}",http://arena-mo.ru/,,,,,,http://ledokat.ru/image/original/rink/6/5d186d84414bf7.46975967.jpg,https://arena-mytizhi.ledokat.ru,,,{},,г.Мытищи,55.911068,37.726816,"{http://ledokat.ru/image/original/rink/6/5d186d84c589e0.15091438.jpg, http://ledokat.ru/image/original/rink/6/5d186d87a62f84.86655974.jpg}",{},,,,
Каток Стадион Метеор,Каток Стадион Метеор,"г.Москва, ул. Генерала Ермолова, 1",{+7 (495) 784-10-09},"{Массовое катание, Фигурное катание, Кафе, Заточка коньков, Аренда коньков, Инвентарь, Медкабинет, Бесплатный Wi-Fi}",http://www.sport-katok.ru/katki/triumph/,http://vk.com/katoknl,https://www.facebook.com/katoknl/,,https://www.instagram.com/sportacademy_ice/,,http://ledokat.ru/image/original/rink/58/5d77eab5742454.45222075.jpg,https://katok-stadion-meteor.ledokat.ru,,,{Парк Победы},,г.Москва,55.738951,37.512460,"{http://ledokat.ru/image/original/rink/58/5d77eab4c74c18.27753356.jpg, http://ledokat.ru/image/original/rink/58/5d77eab436a811.82372107.jpg, http://ledokat.ru/image/original/rink/58/5d77eab3482e33.75021226.jpg}",{},,,,
Ледовый дворец ТРИУМФ,Ледовый дворец ТРИУМФ,"г.Москва, ул. Совхозная, 16, кор. 2",{+7 (903) 187-95-57+7 (968) 666-29-97},"{Гимнастический зал, Массовое катание, Хоккейное катание, Фигурное катание, Раздевалки, Парковка, Заточка коньков, Душ, Аренда коньков}",http://ld-triumf.ru,,https://www.facebook.com/profile.php?id=100034618668249,,,,http://ledokat.ru/image/original/rink/409/5d795350a5fea5.14034307.jpg,https://triumf.ledokat.ru,,,{Ховрино},,г.Москва,55.679499,37.767088,"{http://ledokat.ru/image/original/rink/409/5d795350db9b54.24853516.jpg, http://ledokat.ru/image/original/rink/409/5d795351126768.72502223.jpg, http://ledokat.ru/image/original/rink/409/5d79535148f8e4.21158092.jpg, http://ledokat.ru/image/original/rink/409/5d795351760593.30451426.jpg}",{},,,,
Ледовый комплекс Видный,Ледовый комплекс Видный,"г.Видное, ул. Старо-Нагорная, 20, кор. А",{+7 (985) 233-87-77},"{Бросковая зона, Зона ОФП, Зона СФП, Гимнастический зал, Массовое катание, Хоккейное катание, Фигурное катание, Раздевалки, Кафе, Душ, Инвентарь}",https://vidniy-lk.ru/,https://vk.com/id624105792,https://www.facebook.com/Ледовый-комплекс-Видный-101868991749122/,,https://www.instagram.com/vidniy.lk/,"Ледовый комплекс «Видный» — это современная многофункциональная арена, оборудованная всем необходимым для проведения тренировок, сборов и соревнований по хоккею и фигурному катанию",http://ledokat.ru/image/original/rink/534/602e7b1ac30ef9.81365616.jpg,https://ledovyj-kompleks-vidnyj.ledokat.ru,,,{},,г.Видное,55.562960,37.686517,"{http://ledokat.ru/image/original/rink/534/602e7b19c22b35.08046704.jpg, http://ledokat.ru/image/original/rink/534/602e7b1a5a6a84.05839374.jpg, http://ledokat.ru/image/original/rink/534/602e7b1958e9d7.10598337.jpg}",{},,,,
Дворовый каток ул Талдомская 2,Дворовый каток ул Талдомская 2,"г.Москва, ул. Талдомская, 2",{+7 (499) 488-42-31},"{Массовое катание, Раздевалки, Заточка коньков, Аренда коньков}",,,,,,,http://ledokat.ru/image/original/rink/562/61276143ae6327.73131446.jpg,https://dvortaldom.ledokat.ru,,,{},,г.Москва,55.871905,37.520761,{},{},,,,
Каток в Измайловском парке,Каток в Измайловском парке,"г.Москва, ул. Аллея Большого Круга, 7",{+7 (499) 166-61-19},"{Массовое катание, Раздевалки, Заточка коньков, Аренда коньков}",,,,,,Платный открытый сезонный каткок в Измайловском парке,http://ledokat.ru/image/original/rink/585/612a16db054a82.08812590.jpg,https://izmailovo.ledokat.ru,,,{},,г.Москва,55.768821,37.750855,{},{},,,,
Дворовый каток ул 9-я Северная линия 1к3,Дворовый каток ул 9-я Северная линия 1к3,"г.Москва, ул. 9-я Северная линия, 1, кор. 3",{+7 (499) 767-66-44},{Массовое катание},,,,,,,http://ledokat.ru/image/original/rink/602/6130e491847049.31130236.jpg,https://dvor9jasevernajalinija.ledokat.ru,,,{},,г.Москва,55.935738,37.558849,{},{},,,,
Дворовый каток ул Зарайская 52к2с3,Дворовый каток ул Зарайская 52к2с3,"г.Москва, ул. Зарайская, 52, кор. 2с3",{+7 (495) 379-20-46},"{Массовое катание, Раздевалки, Заточка коньков, Аренда коньков}",,,,,,,http://ledokat.ru/image/original/rink/628/61322851165cd6.20696584.jpg,https://dvorzarajskaja.ledokat.ru,,,{},,г.Москва,55.7280484,37.7741594,{},{},,,,
Дворовый каток Зеленоград 403,Дворовый каток Зеленоград 403,"г.Москва, ул. Зеленоград, 403",{+7 (499) 736-48-41},{Массовое катание},,,,,,,http://ledokat.ru/image/original/rink/634/61323425bdf034.72029236.jpg,https://dvorzelenograd403.ledokat.ru,,,{},,г.Москва,56.000346,37.207177,{},{},,,,
Дворовый каток ул Маршала Захарова 14к1,Дворовый каток ул Маршала Захарова 14к1,"г.Москва, ул. Маршала Захарова, 14, кор. 1",{+7 (495) 276-12-17},"{Массовое катание, Раздевалки, Заточка коньков, Аренда коньков}",,,,,,,http://ledokat.ru/image/original/rink/651/6132431625b659.02228126.jpg,https://dvormarshalazaharova.ledokat.ru,,,{},,г.Москва,59.858101,30.163711,{},{},,,,
Be Like Pro - Дубровка Москва,Be Like Pro - Дубровка Москва,"г.Москва, ул. Новоостаповская, 5, кор. 2",{+7 (495) 152-60-58+7 (929) 671-99-78},"{Бросковая зона, Зона ОФП, Зона СФП, Сухой лед, Хоккейная беговая дорожка, Хоккейное катание, Раздевалки, Душ, Инвентарь, Бесплатный Wi-Fi}",http://dubrovka.belikepro.ru,https://vk.com/be_like_pro?m=86,https://www.facebook.com/belikepro?fref=ts,https://www.youtube.com/channel/UCIGQJUpBcuJQosxmfLB-CTg,https://www.instagram.com/belikepro/,,http://ledokat.ru/image/original/rink/30/5d22242a837dc1.16263779.jpg,https://belikepro---dubrovka.ledokat.ru,,,{Дубровка},,г.Москва,55.7234865,37.6762207,"{http://ledokat.ru/image/original/rink/30/5d222429da2cf2.90971099.jpg, http://ledokat.ru/image/original/rink/30/5d222427bf9455.57437489.jpg, http://ledokat.ru/image/original/rink/30/5d22242868fec1.70758486.jpg, http://ledokat.ru/image/original/rink/30/5d2224290970f6.65655741.jpg}",{},,,,
Каток Гольф-Клуба Сколково The Rink,Каток Гольф-Клуба Сколково The Rink,"г.Сколково, ул. Новая, 100",{+7 (495) 280-37-40},"{Зона СФП, Массовое катание, Хоккейное катание, Фигурное катание, Кафе, Аренда коньков}",http://therink.ru/index.html,,,,,,http://ledokat.ru/image/original/rink/59/5d94feeea195a6.55470082.jpg,https://katok-golf-kluba-skolkovo-the-rink.ledokat.ru,,,{},,г.Сколково,55.6926265,37.3870180,"{http://ledokat.ru/image/original/rink/59/5d94fef04ebf79.11589223.jpg, http://ledokat.ru/image/original/rink/59/5d94feef5519e6.85262648.jpg, http://ledokat.ru/image/original/rink/59/5d94feee033943.91796829.jpg}",{},,,,
УОР имени А.Я. Гомельского,УОР имени А.Я. Гомельского,"г.Москва, ул. Лескова, 25, кор. А",{+7 (499) 902-49-29},"{Зона ОФП, Тренажерный зал, Массовое катание, Хоккейное катание, Фигурное катание, Раздевалки, Заточка коньков, Душ, Медкабинет}",http://uor4.ru,,,,,,http://ledokat.ru/image/original/rink/404/5d76bc879eb044.29095990.jpg,https://uor4-ru.ledokat.ru,,,{Алтуфьево Бибирево},,г.Москва,55.893172,37.621615,{},{},,,,
Каток Адмирал,Каток Адмирал,"г.Москва, ул. Автотрасса Дон, 11",{+7 (903) 858-68-57},"{Массовое катание, Раздевалки, Кафе, Парковка, Заточка коньков, Аренда коньков, Инвентарь}",https://www.admiral-tennisclub.ru/ledovyj-katok,,,,,,http://ledokat.ru/image/original/rink/416/5d879ec6e46310.64699755.jpg,https://katok-admiral.ledokat.ru,,,{},,г.Москва,56.368699,38.17954,{http://ledokat.ru/image/original/rink/416/5d879ec750ded2.96867444.jpg},{},,,,
СК Снегирь,СК Снегирь,"г.д. Марушкино, ул. Липовая аллея, 7, кор. Б",{+7 (495) 241-02-42},"{Бросковая зона, Зона ОФП, Зона СФП, Сухой лед, Тренажерный зал, Гимнастический зал, Массовое катание, Хоккейное катание, Фигурное катание, Раздевалки, Кафе, Парковка, Душ, Инвентарь}",http://www.arenasnegir.ru,,,,https://www.instagram.com/arena_snegir/,Новый спортивный комплекс с двумя ледовыми аренами для занятий хоккеем и фигурным катанием. Открылся в 2021 году в п. Марушкино,http://ledokat.ru/image/original/rink/542/604e170ac68c36.49760618.jpg,https://snegir.ledokat.ru,,,{},,г.д. Марушкино,55.592443,37.201196,{http://ledokat.ru/image/original/rink/542/604e1689deeac0.14064544.jpg},{},,,,
Каток Серебрянный Бор,Каток Серебрянный Бор,"г.Москва, ул. Таманская, 2, кор. А",{+7 (499) 199-01-10},"{Массовое катание, Заточка коньков, Аренда коньков}",,,,,,Открытый платный сезонный каток,http://ledokat.ru/image/original/rink/564/612764cb77bca0.09448055.jpg,https://silverbor.ledokat.ru,,,{},,г.Москва,55.781231,37.442140,{},{},,,,
Каток 50 лет Октября,Каток 50 лет Октября,"г.Москва, ул. Удальцова, 22, кор. А",{+7 (499) 145-00-00},{Массовое катание},,,,,,Открытый бесплатный сезонный каток,http://ledokat.ru/image/original/rink/566/61289e1ca32317.05434549.jpg,https://50october.ledokat.ru,,,{},,г.Москва,55.682016,37.500441,{},{},,,,
Спортивный комплекс образовательного учреждения Керамический пр-д 47А,Спортивный комплекс образовательного учреждения Керамический пр-д 47А,"г.Москва, ул. Керамический проезд, 47, кор. А",{+7 (499) 900-69-00},"{Массовое катание, Заточка коньков}",,,,,,Открытый сезонный каток,http://ledokat.ru/image/original/rink/571/6128ed701974d0.69940477.jpg,https://dvorkeramich.ledokat.ru,,,{},,г.Москва,55.872481,37.566368,{},{},,,,
Каток парк Царицыно,Каток парк Царицыно,"г.Москва, ул. Дольская, 1",{+7 (495) 321-63-66},"{Массовое катание, Раздевалки, Заточка коньков, Аренда коньков}",,,,,,,http://ledokat.ru/image/original/rink/625/613223b1338705.65270822.jpg,https://katokparkcaricyno.ledokat.ru,,,{},,г.Москва,55.6173767,37.6798181,{},{},,,,
Ледовый каток Зеленоград к2301,Ледовый каток Зеленоград к2301,"г.Москва, ул. Зеленоград, 2301",{+7 (499) 717-75-10},{Массовое катание},,,,,,,http://ledokat.ru/image/original/rink/630/61322fb2ae7727.84864992.jpg,https://dvorzelenograd2301.ledokat.ru,,,{},,г.Москва,55.966917,37.187055,{},{},,,,
ХК ГРАД,ХК ГРАД,"г.Москва, ул. шоссе Энтузиастов, 12, кор. 2",{+7 (499) 644-83-06+7 (903) 119-62-53},"{Массовое катание, Хоккейное катание, Фигурное катание, Ночное катание, Раздевалки, Кафе, Парковка, Заточка коньков, Душ, Аренда коньков, Инвентарь}",http://www.hc-grad.ru,,,,,,http://ledokat.ru/image/original/rink/34/5d344de229c195.08581773.jpg,https://hk-grad.ledokat.ru,,,{Авиамоторная},,г.Москва,55.747363,37.707098,"{http://ledokat.ru/image/original/rink/34/5d344de1a79b27.14322445.jpg, http://ledokat.ru/image/original/rink/34/5d344de1599f73.91055848.jpg}",{},,,,
ЛД Армада,ЛД Армада,"г.Одинцово, ул. Молодежная, 15",{+7 (495) 508-86-10},"{Тренажерный зал, Массовое катание, Хоккейное катание, Фигурное катание, Раздевалки, Заточка коньков, Душ, Аренда коньков, Инвентарь}",http://odin-sport.ru/,https://vk.com/odinvoley,https://www.facebook.com/odinsport/,,https://www.instagram.com/odinvoll/,,http://ledokat.ru/image/original/rink/37/5d3475222dfaf1.08139820.jpg,https://ld-armada.ledokat.ru,,,{},,г.Одинцово,55.676357,37.265073,{http://ledokat.ru/image/original/rink/37/5d347524ee97c6.11678352.jpg},{},,,,https://twitter.com/Odinvolley
Каток Молния СШ 70,Каток Молния СШ 70,"г.Москва, ул. Лобненская, 13, кор. А2",{+7 (495) 483-19-07},"{Зона ОФП, Тренажерный зал, Массовое катание, Хоккейное катание, Фигурное катание, Ночное катание, Раздевалки, Парковка, Заточка коньков, Душ, Аренда коньков, Инвентарь, Медкабинет}",http://dush-70.ru,,,,,,http://ledokat.ru/image/original/rink/406/5d77defa86afb9.64688453.jpg,https://dush-70.ledokat.ru,,,{Селигерская},,г.Москва,55.886953,37.534083,{},{},,,,
Спортивный комплекс образовательного учреждения ул Врубеля 6,Спортивный комплекс образовательного учреждения ул Врубеля 6,"г.Москва, ул. Врубеля, 6",{+7 (499) 158-03-31},"{Массовое катание, Заточка коньков, Аренда коньков}",,,,,,Бесплатный открытый сезонный каток,http://ledokat.ru/image/original/rink/572/6128f1833f0a79.48838161.jpg,https://dvorvrubelja.ledokat.ru,,,{},,г.Москва,55.805523,37.500612,{},{},,,,
Спортивный комплекс образовательного учреждения ул Шипиловская 46к3,Спортивный комплекс образовательного учреждения ул Шипиловская 46к3,"г.Москва, ул. Шипиловская, 46, кор. 3",{+7 (495) 390-02-28},"{Массовое катание, Раздевалки, Заточка коньков, Аренда коньков}",,,,,,Открытый дворовый бесплатный каток,http://ledokat.ru/image/original/rink/576/612a0a5fb97513.92271537.jpg,https://dvorshipilovskaya.ledokat.ru,,,{},,г.Москва,55.619518,37.736123,{},{},,,,
Спортивное сооружение ул Вилиса Лациса 29к1,Спортивное сооружение ул Вилиса Лациса 29к1,"г.Москва, ул. Вилиса Лациса, 29, кор. 1",{+7 (495) 949-75-49},{Массовое катание},,,,,,,http://ledokat.ru/image/original/rink/616/6132168582c7a8.42332756.jpg,https://dvorvilisalacisa.ledokat.ru,,,{},,г.Москва,55.861292,37.413709,{},{},,,,
Дворовый каток Зеленоград к518,Дворовый каток Зеленоград к518,"г.Москва, ул. Зеленоград, 518",{+7 (499) 736-78-86},{Массовое катание},,,,,,,http://ledokat.ru/image/original/rink/631/61323087f41124.74324086.jpg,https://dvorzelenograd518.ledokat.ru,,,{},,г.Москва,55.999792,37.235833,{},{},,,,
Дворовый каток ул Краснодонская 14к1,Дворовый каток ул Краснодонская 14к1,"г.Москва, ул. Краснодонская, 14, кор. 1",{+7 (499) 722-74-75},{Массовое катание},,,,,,,http://ledokat.ru/image/original/rink/640/613239e8aad802.38979121.jpg,https://dvorkrasnodonskaja.ledokat.ru,,,{},,г.Москва,55.679113,37.748655,{},{},,,,
каток в парке Березовая роща,каток в парке Березовая роща,"г.Москва, ул. Куусинена, 15, кор. 3",{+7 (495) 940-08-83},"{Массовое катание, Заточка коньков, Аренда коньков}",,,,,,,http://ledokat.ru/image/original/rink/644/61323dbfebd6a9.47817331.jpg,https://berezovajaroshha.ledokat.ru,,,{},,г.Москва,55.785154,37.512703,{},{},,,,
Дворовый каток ул Малышева 2,Дворовый каток ул Малышева 2,"г.Москва, ул. Малышева, 2",{+7 (499) 176-81-78},{Массовое катание},,,,,,,http://ledokat.ru/image/original/rink/650/6132422ecc7605.61376707.jpg,https://dvormalysheva.ledokat.ru,,,{},,г.Москва,55.703672,37.741019,{},{},,,,
Ice Park на Рязанском,Ice Park на Рязанском,"г.Москва, ул. Рязанский проспект, 4, кор. 3",{+7 (495) 640-91-30+7 (903) 718-91-30},"{Массовое катание, Хоккейное катание, Фигурное катание, Раздевалки, Кафе, Парковка, Душ, Инвентарь, Бесплатный Wi-Fi}",https://www.ice-park.org//ryazansky,,,,https://www.instagram.com/icepark2017/,,http://ledokat.ru/image/original/rink/17/5d18735fa4d9c7.49080107.jpg,https://icepark-ryazansky.ledokat.ru,,,{Рязанский проспект},,г.Москва,55.729159,37.745789,"{http://ledokat.ru/image/original/rink/17/5d8fc846613cd1.92373885.jpg, http://ledokat.ru/image/original/rink/17/5d1873608b6a93.59394718.jpg, http://ledokat.ru/image/original/rink/17/5d8fc92b2c8624.42405417.jpg, http://ledokat.ru/image/original/rink/17/5d8fc92b6984d0.30215788.jpg}",{},,,,
Ледовая Арена Стерх,Ледовая Арена Стерх,"г.Щербинка, ул. Новостроевская, 4, кор. А",{+7 (916) 384-78-78},"{Бросковая зона, Зона ОФП, Сухой лед, Гимнастический зал, Массовое катание, Хоккейное катание, Фигурное катание, Раздевалки, Парковка, Заточка коньков, Душ, Аренда коньков, Инвентарь}",https://www.sterkh-arena.ru,https://vk.com/sterkharena,https://www.facebook.com/sterkharena/,https://www.youtube.com/channel/UC-PlsGJKCUKlDZZ1qpH54Xg,https://instagram.com/,,http://ledokat.ru/image/original/rink/35/5d344fe2510fb1.89661074.jpg,https://sterkh-arena.ledokat.ru,,,{},,г.Щербинка,55.505781,37.558005,"{http://ledokat.ru/image/original/rink/35/5d344fe2a8d961.48438055.jpg, http://ledokat.ru/image/original/rink/35/5d344fe2043ab5.23149632.jpg}",{},,,,
Ледовая арена СНЕЖНЫЙ БАРС,Ледовая арена СНЕЖНЫЙ БАРС,"г.Москва, ул. Большая Очаковская, 2, кор. 23",{+7 (495) 208-50-10},"{Бросковая зона, Зона ОФП, Зона СФП, Сухой лед, Тренажерный зал, Массовое катание, Хоккейное катание, Фигурное катание, Ночное катание, Раздевалки, Кафе, Парковка, Заточка коньков, Душ, Инвентарь, Медкабинет, Бесплатный Wi-Fi, Оплата картой}",http://arenabars.ru,,https://www.facebook.com/pages/Арена-Снежный-Барс/537786786590428,,https://www.instagram.com/arena_snezhnyibars/,,http://ledokat.ru/image/original/rink/55/5d77dba701c6f7.96404656.jpg,https://arena-bars.ledokat.ru,,,{Мичуринский проспект},,г.Москва,55.693013,37.466089,"{http://ledokat.ru/image/original/rink/55/5d77dba7c85dd6.06499210.jpg, http://ledokat.ru/image/original/rink/55/5d77dba84d52f2.06341216.jpg, http://ledokat.ru/image/original/rink/55/5d77dba8b12040.22396029.jpg, http://ledokat.ru/image/original/rink/55/5d77dba92d78e9.74430067.jpg}",{},,,,
Ледовый Бум,Ледовый Бум,"г.Москва, ул. Зои и Александра Космодемьянских, 1, кор. 1",{+7 (925) 612-09-24},"{Массовое катание, Раздевалки, Кафе, Заточка коньков, Аренда коньков, Инвентарь, Бесплатный Wi-Fi, Оплата картой}",https://vk.com/page-33157022_43564028,https://vk.com/page-33157022_43564028,,,,,http://ledokat.ru/image/original/rink/150/5d7896e67f9e87.08419573.jpg,https://ledovyj-bum.ledokat.ru,,,{Войковская},,г.Москва,55.81959,37.504259,"{http://ledokat.ru/image/original/rink/150/5d7896e5bfd424.59530805.jpg, http://ledokat.ru/image/original/rink/150/5d7896e62ed1c1.13541310.jpg}",{},,,,
Каток Ракета на ВДНХ,Каток Ракета на ВДНХ,"г.Москва, ул. Площадь Промышленности",{+7 (495) 544-34-00},"{Массовое катание, Раздевалки, Кафе, Парковка, Заточка коньков, Аренда коньков, Медкабинет, Бесплатный Wi-Fi, Оплата картой}",http://katok.vdnh.ru/places/katok-raketa/,https://vk.com/katoknavdnh,https://www.facebook.com/Каток-ВДНХ-2155194731397618/,http://www.youtube.com/channel/UC7jhb9mhk9ZQE719pFfe-vg,https://www.instagram.com/katoknavdnh,"Каток Ракета на ВДНХ – один из самых крупных открытых катков для массового любительского катания на коньках. Каток расположен в центре ВДНХ на площади Промышленности, вокруг макета ракеты-носителя «Восток». Площадь искусственного льда Катка Ракета составляет более 8,6 тыс. кв. м.  На Катке Ракета на ВДНХ можно весело провести время с друзьями и родными, покататься на коньках на свежем воздухе, послушать музыку, принять участие в различных развлекательных мероприятиях и конкурсах, которые организуются на  катке Ракета. 

Для хранения сумок в павильонах Катка Ракета открыты специальные ячейки. Размерный ряд коньков в прокате — от 25-го до 48-го размера. Коньки предоставляются как фигурные, так и хоккейные.",http://ledokat.ru/image/original/rink/391/5d3d5fb2617af5.90480936.jpg,https://katok-raketa-na-vdnh.ledokat.ru,,,{ВДНХ},,г.Москва,55.834259,37.623241,"{http://ledokat.ru/image/original/rink/391/5d3d5fb123d303.17823939.jpg, http://ledokat.ru/image/original/rink/391/5d3d5fbba34de6.94689345.jpg}",{},,,,
Дворец спорта Крылья Советов,Дворец спорта Крылья Советов,"г.Москва, ул. Толобухина, 10, кор. 4",{+7 (499) 658-00-58},"{Хоккейное катание, Раздевалки, Кафе, Душ, Инвентарь, Медкабинет}",http://hc-ks.ru/show-text.asp?t=ice-palace,,,,,,http://ledokat.ru/image/original/rink/461/5d988ec3b309f7.89672908.jpg,https://kryla-sovetov.ledokat.ru,,,{Молодежная Кунцевская},,г.Москва,55.720271,37.405732,"{http://ledokat.ru/image/original/rink/461/5d988ec3f41121.93926149.jpg, http://ledokat.ru/image/original/rink/461/5d988ed349c8d7.86222034.jpg}",{},,,,
Каток Вилса Лациса,Каток Вилса Лациса,"г.Москва, ул. Вилса Лациса, 26",{+7 (905) 744-11-62},"{Массовое катание, Раздевалки, Заточка коньков, Аренда коньков}",,,,,,Открытый сезонный каток,http://ledokat.ru/image/original/rink/598/612f96011e1361.83615544.jpg,https://vilislatsis.ledokat.ru,,,{},,г.Москва,55.862282,37.412756,{},{},,,,
Дворовый каток Варшавское шоссе 158к2,Дворовый каток Варшавское шоссе 158к2,"г.Москва, ул. Варшавское шоссе, 158, кор. 2",{+7 (495) 382-82-00},"{Массовое катание, Раздевалки, Заточка коньков, Аренда коньков}",,,,,,,http://ledokat.ru/image/original/rink/613/61320acd91ab72.58816877.jpg,https://dvorvarshavskoeshosse.ledokat.ru,,,{},,г.Москва,55.583871,37.595662,{},{},,,,
Дворовый каток ул Веневская 25,Дворовый каток ул Веневская 25,"г.Москва, ул. Венёвская, 25",{+7 (495) 712-70-11},{Массовое катание},,,,,,,http://ledokat.ru/image/original/rink/614/61320c596c4f58.98966294.jpg,https://dvorVenevskaja.ledokat.ru,,,{},,г.Москва,55.54289,37.552804,{},{},,,,
Спортивный комплекс образовательного учреждения Линейный проезд 9,Спортивный комплекс образовательного учреждения Линейный проезд 9,"г.Москва, ул. Линейный проезд, 9",{+7 (495) 482-34-74},{Массовое катание},,,,,,,http://ledokat.ru/image/original/rink/647/613240331b4959.87903026.jpg,https://dvorlinejnyjproezd.ledokat.ru,,,{},,г.Москва,55.842085,37.572037,{},{},,,,
Спорт тайм,Спорт тайм,"г.Москва, ул. ул. Лобачевского, 110",{+7 (495) 205-49-09},"{Бросковая зона, Зона ОФП, Тренажерный зал, Гимнастический зал, Хоккейное катание, Фигурное катание, Ночное катание, Раздевалки, Кафе, Парковка, Заточка коньков, Душ, Аренда коньков, Инвентарь, Бесплатный Wi-Fi}",https://sporttime.ru/sport/hockey,,,,https://www.instagram.com/sport_time_moscow/,"Спорт Тайм – это многофункциональный спортивный комплекс, расположенный на Юго-Западе Москвы в Раменках. Спорт Тайм предоставляет возможность полноценных тренировок для любителей хоккея и фигурного катания все возрастов. В состав комплекса входят две ледовых арены размерами 56х26 м. и  36х18 м. Ледовые арены работают круглосуточно. Комплекс располагает также залом для ОФП, хореографическим залом, бросковой зоной.  Спорт Тайм предоставляет услуги по организации спортивных и культурно-массовых развлекательных мероприятий.
К услугам посетителей также кафе со спортивным питанием, бесплатный wifi и собственная парковка. Есть услуга заточки и проката коньков.",http://ledokat.ru/image/original/rink/3/5d98db96846fe5.05193300.jpg,https://sport-time.ledokat.ru,,,{Мичуринский проспект},,г.Москва,55.690380,37.477247,"{http://ledokat.ru/image/original/rink/3/5d98db98005085.01981173.jpg, http://ledokat.ru/image/original/rink/3/5d98dda80fc668.78238437.jpg, http://ledokat.ru/image/original/rink/3/5d98ddaa44ece9.53584602.jpg, http://ledokat.ru/image/original/rink/3/5d98ddac5a0040.72388450.jpg}",{},,,,
Ледовый хоккейный центр Витязь,Ледовый хоккейный центр Витязь,"г.Москва, ул. Московская, 104",{+7 (849) 672-60-93},"{Бросковая зона, Зона ОФП, Зона СФП, Тренажерный зал, Гимнастический зал, Массовое катание, Хоккейное катание, Фигурное катание, Раздевалки, Кафе, Парковка, Заточка коньков, Душ, Аренда коньков, Инвентарь, Медкабинет, Оплата картой}",http://www.ihcvityaz.com,http://vk.com/lhcvityaz,,https://www.youtube.com/channel/UCJN6OqtO5gJe4_DY8mG5SKQ,https://www.instagram.com/ds_vityaz/,,http://ledokat.ru/image/original/rink/408/5d794e0acce175.44696385.jpg,https://ihc-vityaz.ledokat.ru,,,{Южная},,г.Москва,55.531728,38.929526,"{http://ledokat.ru/image/original/rink/408/5d794e09e3ec50.83178584.jpg, http://ledokat.ru/image/original/rink/408/5d794e093c9a97.02683383.jpg, http://ledokat.ru/image/original/rink/408/5d794e0a77d876.16176828.jpg}",{},,,,
Ледовая Арена Селятино им. Мышкина,Ледовая Арена Селятино им. Мышкина,"г.рабочий посёлок Селятино, ул. Спортивная, 3, кор. 4",{+7 (496) 342-97-64},"{Бросковая зона, Зона ОФП, Тренажерный зал, Гимнастический зал, Массовое катание, Хоккейное катание, Фигурное катание, Раздевалки, Кафе, Парковка, Заточка коньков, Душ, Аренда коньков, Инвентарь, Медкабинет, Оплата картой}",https://maus-stroitel.ru/ledovaya-arena/,https://vk.com/mausstroitel,https://www.facebook.com/mausstroitel/,,https://www.instagram.com/sportkombinatstroitel/,,http://ledokat.ru/image/original/rink/516/5fff5df02c7aa3.82876412.jpg,https://arena-selatino-myskina.ledokat.ru,,,{},,г.рабочий посёлок Селятино,55.516797,36.985715,"{http://ledokat.ru/image/original/rink/516/5fff5defabaa49.09773403.jpg, http://ledokat.ru/image/original/rink/516/5fff5def47ce71.76396319.jpg}",{},,,,https://twitter.com/mausstroitel
Дворец спорта Надежда,Дворец спорта Надежда,"г.Павловский Посад, ул. Кирова, 95",{+7 (496) 432-02-99},"{Бросковая зона, Зона ОФП, Сухой лед, Тренажерный зал, Гимнастический зал, Массовое катание, Хоккейное катание, Фигурное катание, Раздевалки, Кафе, Парковка, Заточка коньков, Душ, Аренда коньков, Инвентарь}",http://ds-nadezda.ru,https://vk.com/share.php?url=http%3A%2F%2Fds-nadezda.ru%2Findex%2F0-4&title=Дворец%20спорта%20Надежда%20Павловский%20Посад%20-%20Контакты&utm_source=share2,https://www.facebook.com/sharer.php?src=sp&u=http%3A%2F%2Fds-nadezda.ru%2Findex%2F0-4&title=Дворец%20спорта%20Надежда%20Павловский%20Посад%20-%20Контакты&utm_source=share2,,,,http://ledokat.ru/image/original/rink/538/603fa9fd9a3959.14497304.jpg,https://nadezda-pavlovski-posad.ledokat.ru,,,{},,г.Павловский Посад,55.780939,38.673398,"{http://ledokat.ru/image/original/rink/538/603fa9fd299914.48582433.jpg, http://ledokat.ru/image/original/rink/538/603fa9fca335d5.36694069.jpg, http://ledokat.ru/image/original/rink/538/603fa9fc2dfda5.34818275.jpg, http://ledokat.ru/image/original/rink/538/603fa9fc6b5a85.42562658.jpg}",{},,,,https://twitter.com/intent/tweet?text=Дворец%20спорта%20Надежда%20Павловский%20Посад%20-%20Контакты&url=http%3A%2F%2Fds-nadezda.ru%2Findex%2F0-4&utm_source=share2
Дворовый каток ул Крупской 1,Дворовый каток ул Крупской 1,"г.Москва, ул. Крупской, 1",{+7 (499) 783-84-23},"{Массовое катание, Раздевалки, Заточка коньков, Аренда коньков}",,,,,,Бесплатный открытый дворовый каток,http://ledokat.ru/image/original/rink/560/61271d9f8446e4.75051399.jpg,https://dvorkrupskoi.ledokat.ru,,,{},,г.Москва,55.680864,37.530121,{},{},,,,
Дворовый каток ул Маршала Федоренко 2к1,Дворовый каток ул Маршала Федоренко 2к1,"г.Москва, ул. Маршала Федоренко, 2, кор. 1",{+7 (499) 488-99-54},"{Массовое катание, Раздевалки, Заточка коньков, Аренда коньков}",,,,,,Бесплатный открытый дворовый каток,http://ledokat.ru/image/original/rink/563/6127625e8b6d01.54056009.jpg,https://dvorfedorenko.ledokat.ru,,,{},,г.Москва,55.879903,37.494226,{},{},,,,
Дворовый каток ул. 3я Подрезковская 14с1,Дворовый каток ул. 3я Подрезковская 14с1,"г.Москва, ул. 3я Подрезковская, 14, кор. с1",{+7 (499) 500-19-71},{Массовое катание},,,,,,Открытый бесплатный дворовый каток,http://ledokat.ru/image/original/rink/580/612a0eea91afe8.81999631.jpg,https://dvorpodrezkovskaya.ledokat.ru,,,{},,г.Москва,55.940422,37.355884,{},{},,,,
Каток в Парке Фили,Каток в Парке Фили,"г.Москва, ул. Большая Филевская, 22, кор. 15",{+7 (499) 145-45-05},"{Массовое катание, Заточка коньков, Аренда коньков}",https://parkfili.com/park-olimpik/home-2-3-2-2-2/fili/,,,,,Открытый бесплатный сезонный каток в Парке Фили,http://ledokat.ru/image/original/rink/587/612a18aea7b2c5.73574890.jpg,https://parkfili.ledokat.ru,,,{},,г.Москва,55.746618,37.491251,{},{},,,,
Каток Ландшафтный парк Митино,Каток Ландшафтный парк Митино,"г.Москва, ул. Барышиха, 8",{+7 (499) 184-34-22},{Массовое катание},,,,,,,http://ledokat.ru/image/original/rink/608/6130ebdfdf0fa7.18266645.jpg,https://katoklandshaftnyjparkmitino.ledokat.ru,,,{},,г.Москва,55.839749,37.364625,{},{},,,,
Дворовый каток ул Малая Калитниковская 45,Дворовый каток ул Малая Калитниковская 45,"г.Москва, ул. Малая Калитниковская, 45",{+7 (495) 911-12-81},{Массовое катание},,,,,,,http://ledokat.ru/image/original/rink/649/6132418eb969f4.93682706.jpg,https://dvormalajakalitnikovskaja.ledokat.ru,,,{},,г.Москва,55.734719,37.683985,{},{},,,,
Арена Балашиха им.Ю.Е.Ляпкина,Арена Балашиха им.Ю.Е.Ляпкина,"г.Балашиха, ул. Парковая, 2",{+7 (498) 662-42-42},"{Зона ОФП, Тренажерный зал, Гимнастический зал, Массовое катание, Хоккейное катание, Фигурное катание, Ночное катание, Раздевалки, Кафе, Парковка, Заточка коньков, Душ, Аренда коньков, Инвентарь}",http://icebal.ru,https://vk.com/icebal,http://www.facebook.com/icebalru,,http://www.instagram.com/arenabalashikha/,"Ледовый дворец Арена Балашиха – универсальный спортивно-развлекательный ледовый комплекс, расположенный в Подмосковье в Балашихе, где созданы все условия для проведения тренировок и сборов хоккеистов и фигуристов, а также для проведения спортивных турниров и соревнований по хоккею и фигурному катанию, а также массовых и развлекательных мероприятий. Ледовый дворец включает две полноценные ледовые арены размерами 60х30 м, есть зона ОФП и тренажерный зал.

Арена Балашиха является базовым ледовым дворцом для СДЮСШОР Олимпиец, Академии Авангард-Олимпиец. На Арене Балашиха проводятся хоккейные матчи Любительской хоккейной лиги Московской области. 

Арена Балашиха приглашает всех любителей весело провести время и покататься на коньках на сеансы массового катания на коньках. Организован прокат и заточка коньков. В прокате имеется широкий размерный ряд коньков. Коньки предоставляются как фигурные, так и хоккейные. Также возможно проведение развлекательных и массовых мероприятий на ледовой арене.

Ледовый дворец Арена Балашиха имеет все необходимое для проведения сборов для хоккейных и фигурных клубов и школ, предоставляет услуги аренды льда и других спортивных зон. Комплекс открыт для любителей и профессионалов, для детей и взрослых.",http://ledokat.ru/image/original/rink/10/5d17e33e574ed8.23062587.jpg,https://arenabalashikha.ledokat.ru,,,{},,г.Балашиха,55.798616,37.939861,"{http://ledokat.ru/image/original/rink/10/5d894ad1820206.07725713.jpg, http://ledokat.ru/image/original/rink/10/5d894ad24bcda9.21582815.jpg}",{},,,,
Вершина,Вершина,"г.Москва, ул. Шипиловский проезд, 63, кор. 1",{+7 (495) 744-68-14+7 (926) 656-43-92},"{Бросковая зона, Зона ОФП, Сухой лед, Тренажерный зал, Гимнастический зал, Массовое катание, Хоккейное катание, Фигурное катание, Ночное катание, Раздевалки, Кафе, Парковка, Заточка коньков, Душ, Аренда коньков, Инвентарь}",http://www.katok.top,https://vk.com/navershiny,https://www.facebook.com/mskvershina,,https://www.instagram.com/msk_vershina/,,http://ledokat.ru/image/original/rink/15/5d1871a3387387.58280650.jpg,https://vershina.ledokat.ru,,,{Орехово},,г.Москва,55.601442,37.710530,"{http://ledokat.ru/image/original/rink/15/5d1871a452da19.87659773.jpg, http://ledokat.ru/image/original/rink/15/5d1871a5765208.02437338.jpg, http://ledokat.ru/image/original/rink/15/5d8fb123cd20d8.19982182.jpg}",{},,,,
Ледовый дворец Витязь,Ледовый дворец Витязь,"г.Подольск, ул. Кирова, 63, кор. А",{+7 (496) 765-40-18+7 (496) 765-40-23+7 (929) 997-35-93},"{Зона ОФП, Тренажерный зал, Массовое катание, Хоккейное катание, Фигурное катание, Раздевалки, Кафе, Парковка, Заточка коньков, Душ, Инвентарь, Оплата картой}",https://www.icepodolsk.ru/arena,https://vk.com/icepalacevityaz,,,,,http://ledokat.ru/image/original/rink/23/5d221a299bc197.74403095.jpg,https://icepalacevityaz.ledokat.ru,,,{},,г.Подольск,55.420127,37.516054,{},{},,,,
Ледовая арена Третьяка,Ледовая арена Третьяка,"г.Щелково, ул. Фабричная, 4",{+7 (496) 250-07-88},"{Бросковая зона, Зона ОФП, Зона СФП, Тренажерный зал, Массовое катание, Хоккейное катание, Фигурное катание, Раздевалки, Парковка, Заточка коньков, Душ, Аренда коньков, Медкабинет}",http://ice-arena.3dn.ru,,,,,,http://ledokat.ru/image/original/rink/50/5d34cb18c653a5.66202120.jpg,https://arena-tretyaka.ledokat.ru,,,{},,г.Щелково,55.917455,38.010055,{http://ledokat.ru/image/original/rink/50/5d34cb679167a8.11799978.jpg},{},,,,
Зарайский ледовый комплекс,Зарайский ледовый комплекс,"г.Зарайск, ул. Академика Виноградова, 20",{+7 (496) 664-29-39+7 (496) 664-29-49+7 (925) 346-44-86},"{Бросковая зона, Зона ОФП, Тренажерный зал, Гимнастический зал, Массовое катание, Хоккейное катание, Фигурное катание, Раздевалки, Кафе, Парковка, Заточка коньков, Душ, Аренда коньков, Инвентарь, Медкабинет, Оплата картой}",https://zarayskarena.ru,https://vk.com/mbuzlsk,,https://www.youtube.com/channel/UCZbHUftfDlMOjJ112SZfYbw?view_as=subscriber,https://www.instagram.com/mbuzlsk/,,http://ledokat.ru/image/original/rink/517/5fff6452cfe413.14830365.jpg,https://zaraisk-ledovyi-kompleks.ledokat.ru,,,{},,г.Зарайск,54.751248,38.897348,"{http://ledokat.ru/image/original/rink/517/5fff64544431f2.56228178.jpg, http://ledokat.ru/image/original/rink/517/5fff6453a17287.47310588.jpg}",{},,,,
Крытый Каток в парк-отеле Пересвет,Крытый Каток в парк-отеле Пересвет,"г.Пересвет, ул. Пионерская, 9",{+7 (499) 588-89-50+7 (965) 447-99-48},"{Бросковая зона, Зона ОФП, Тренажерный зал, Гимнастический зал, Массовое катание, Хоккейное катание, Фигурное катание, Раздевалки, Кафе, Парковка, Заточка коньков, Душ, Аренда коньков, Инвентарь, Медкабинет, Бесплатный Wi-Fi, Оплата картой}",https://peresvethotel.ru/services/sport/ledovaya-arena/,https://vk.com/hotelperesvet,https://www.facebook.com/peresvethotel/,https://www.youtube.com/channel/UCUroe5DAdswMmNQdrXymbCg,https://www.instagram.com/peresvet_hotel_spa/,,http://ledokat.ru/image/original/rink/519/6001abbd1352b4.10003444.jpg,https://krytyj-katok-v-park-otele-peresvet.ledokat.ru,,,{},,г.Пересвет,56.417631,38.167844,"{http://ledokat.ru/image/original/rink/519/6001aba8eca827.39467499.jpg, http://ledokat.ru/image/original/rink/519/6001acdbdf8402.22021678.jpg}",{},,,,
Открытый ледовый каток ул Н.Ковшовой 14к1,Открытый ледовый каток ул Н.Ковшовой 14к1,"г.Москва, ул. Наташи Ковровой, 14, кор. 1",{+7 (495) 430-67-60},{Массовое катание},,,,,,Бесплатный открытый каток,http://ledokat.ru/image/original/rink/561/61273a32370618.21969605.jpg,https://dvorkovshovoi.ledokat.ru,,,{},,г.Москва,55.679428,37.445770,{},{},,,,
Дворовый каток ул Амурская 20,Дворовый каток ул Амурская 20,"г.Москва, ул. Амурская, 20",{+7 (495) 467-65-84},{Массовое катание},,,,,,,http://ledokat.ru/image/original/rink/605/6130e7f886beb8.21600309.jpg,https://dvoramurskaja.ledokat.ru,,,{},,г.Москва,55.808675,37.767977,{},{},,,,
Дворовый каток ул Костромская 16,Дворовый каток ул Костромская 16,"г.Москва, ул. Костромская, 16",{+7 (499) 902-22-20},"{Массовое катание, Аренда коньков}",,,,,,,http://ledokat.ru/image/original/rink/638/613237b70629b9.82807148.jpg,https://dvorkostromskaja.ledokat.ru,,,{},,г.Москва,55.884363,37.598411,{},{},,,,
Дворовый каток ул Лухмановская 32,Дворовый каток ул Лухмановская 32,"г.Москва, ул. Лухмановская, 32",{+7 (499) 721-12-59},{Массовое катание},,,,,,,http://ledokat.ru/image/original/rink/648/613240eb5619c4.16854388.jpg,https://dvorluhmanovskaja.ledokat.ru,,,{},,г.Москва,55.72236,37.909938,{},{},,,,
Overtime Master,Overtime Master,"г.Москва, ул. Верейская, 29, кор. 137",{+7 (495) 926-26-47},"{Бросковая зона, Зона ОФП, Зона СФП, Сухой лед, Хоккейная беговая дорожка, Хоккейное катание, Раздевалки, Кафе, Парковка, Заточка коньков, Душ, Инвентарь, Бесплатный Wi-Fi}",http://overtimemaster.ru/,,,,https://www.instagram.com/overtime_master/,"Overtime Master это профессиональный хоккейный тренировочный центр, расположенный на Юго-Западе Москвы. Помимо ледовой арены, Overtime Master располагает зоной общей физической и специальной подготовки для хоккеистов, бросковой зоной и специализированным тренажером – хоккейной беговой дорожкой.  Любители хоккея могут здесь повысить свой уровень техники катания на коньках, владения клюшкой,  усовершенствовать и пробрести навыки хоккейных приемов для красивого забивания голов.
Опытные тренеры  Overtime Master готовы разработать для Вас индивидуальную программу тренировок. Помимо тренировок на льду, предлагаются также специализированные виды тренировок по хоккею: бросковая тренировка, тренировка на хоккейном тренажере Blazing Thunder, дриблинг, вратарская тренировка.",http://ledokat.ru/image/original/rink/4/5d17db8d6b5cd7.53926896.jpg,https://overtime-master.ledokat.ru,,,{Кунцевская},,г.Москва,55.706589,37.433436,"{http://ledokat.ru/image/original/rink/4/5d17db8dca4e40.00515662.jpg, http://ledokat.ru/image/original/rink/4/5d87334999ca79.66882416.jpg}",{},,,,
Академия льда,Академия льда,"г.Москва, ул. 1-ый Стрелецкий проезд, 14",{+7 (495) 401-90-09},"{Бросковая зона, Зона ОФП, Тренажерный зал, Гимнастический зал, Хоккейное катание, Фигурное катание, Раздевалки, Кафе, Заточка коньков, Душ, Инвентарь}",http://iceacadem.ru,https://vk.com/iceacademru,https://www.facebook.com/akademialda/,,https://instagram.com/ice.academ/,"Академия льда - многофункциональный спортивно-оздоровительный комплекс, расположенный на севере Москвы недалеко от Третьего Транспортного Кольца в Марьиной Роще. Комплекс Академия льда создан специально для полноценных командных и индивидуальных  тренировок хоккеистов и фигуристов. В комплексе есть 2 ледовые арены размерами 56х26 м. и  30х10 м.

В Академии льда проводится обучение хоккею и фигурному катанию детей начиная с трех лет, есть своя школа по хоккею и школа по фигурному катанию. Академия льда для полноценных индивидуальных и групповых занятий юных хоккеистов и занятий взрослых по хоккею располагает собственным тренировочный центром, в котором Вы сможете найти бросковую зону, зону ОФП и зал хореографии. Кроме этого, в Академии льда также есть фитнес-центр с кардио зоной, зоной свободных весов, а также бассейн 21м, 3 дорожки, зона SPA, сауна и хамам. Спортивное оборудование и тренажеры, используемые в тренировочном процессе, позволяют тренировать игроков различного возраста и уровня подготовки.

Подкатки и индивидуальные тренировки проходят под руководством опытных тренеров. Есть услуга заточки и проката коньков. В Академии льда также есть удобное и комфортабельное кафе. Комплекс Академия льда имеет все необходимое для проведения сезонных сборов для хоккейных и фигурных клубов и школ, предоставляет услуги аренды льда и других спортивных зон.",http://ledokat.ru/image/original/rink/9/5d17e0235bcfb3.17507494.jpg,https://iceacadem.ledokat.ru,,,{Марьина Роща},,г.Москва,55.798637,37.608993,"{http://ledokat.ru/image/original/rink/9/5d17e01dd63125.06093378.jpg, http://ledokat.ru/image/original/rink/9/5d8946d6b18b27.61701876.jpg, http://ledokat.ru/image/original/rink/9/5d17e020c18667.82616740.jpg, http://ledokat.ru/image/original/rink/9/5d8946d601bf02.34608515.jpg}",{},,,,
СК МАЯК,СК МАЯК,"г.Москва, ул. Красного Маяка, 28",{+7 (495) 532-00-17},"{Зона ОФП, Зона СФП, Гимнастический зал, Массовое катание, Хоккейное катание, Фигурное катание, Раздевалки, Кафе, Парковка, Заточка коньков, Душ, Аренда коньков, Инвентарь}",https://sport-vsegda.ru/stadion_krasnyimayak,https://vk.com/sportvsegda_ru,https://www.facebook.com/sportvsegda.ru,,https://www.instagram.com/sportvsegda.ru/,,http://ledokat.ru/image/original/rink/33/5d340e6d205f97.83074941.jpg,https://sk-mayak.ledokat.ru,,,{Пражская},,г.Москва,55.605861,37.578442,"{http://ledokat.ru/image/original/rink/33/5d340e6ff085c5.55515044.jpg, http://ledokat.ru/image/original/rink/33/5d340e6f3f6610.40853564.jpg, http://ledokat.ru/image/original/rink/33/5d340e6e6c9926.04797963.jpg}",{},,,,
Хрустальный,Хрустальный,"г.Москва, ул. Профсоюзная, 97, кор. 1",{+7 (499) 793-41-64},"{Тренажерный зал, Гимнастический зал, Фигурное катание, Раздевалки, Душ}",http://самбо-70.рф/sport/zapas/Khrystaln/history,,,,,,http://ledokat.ru/image/original/rink/40/5d34784305cb03.97985365.jpg,https://khrustalny.ledokat.ru,,,{Коньково},,г.Москва,55.637967,37.524489,"{http://ledokat.ru/image/original/rink/40/5d347841d8ce03.09972048.jpg, http://ledokat.ru/image/original/rink/40/5d3478405e5c25.27629015.jpg}",{},,,,
Космик ТЦ Калейдоскоп,Космик ТЦ Калейдоскоп,"г.Москва, ул. Сходненская, 56",{+7 (926) 996-02-14},"{Массовое катание, Кафе, Парковка, Аренда коньков}",http://www.cosmik.ru/razvlecheniya/katok/,https://vk.com/officialcosmik,https://www.facebook.com/pages/КОСМИК/362564453766653,,https://www.instagram.com/officialcosmik/,,http://ledokat.ru/image/original/rink/44/5d348cb8ef4b90.36010859.jpg,https://cosmik-kaleydoscope.ledokat.ru,,,{Сходненская},,г.Москва,55.850481,37.444372,{http://ledokat.ru/image/original/rink/44/5d348cb6f3a7b6.74620989.jpg},{},,,,
Ледовая арена Б-Класс,Ледовая арена Б-Класс,"г.Серпухов, ул. Московское шоссе, 55, кор. 1",{+7 (496) 737-14-51},"{Массовое катание, Хоккейное катание, Фигурное катание, Раздевалки, Заточка коньков, Душ, Аренда коньков, Медкабинет}",http://arena-bklass.ru,https://vk.com/arenabklass,,,,,http://ledokat.ru/image/original/rink/47/5d34a5ae506d33.91864907.jpg,https://arena-bklass.ledokat.ru,,,{},,г.Серпухов,54.9420142,37.4052554,"{http://ledokat.ru/image/original/rink/47/5d34a5af634659.97033725.jpg, http://ledokat.ru/image/original/rink/47/5d34a5adb7cf34.31075957.jpg}",{},,,,
СК ДМИТРОВ,СК ДМИТРОВ,"г.Дмитров, ул. Профессиональная, 25",{+7 (496) 224-54-68},"{Бросковая зона, Зона ОФП, Зона СФП, Тренажерный зал, Массовое катание, Хоккейное катание, Фигурное катание, Ночное катание, Раздевалки, Кафе, Парковка, Заточка коньков, Душ, Аренда коньков, Инвентарь, Медкабинет, Оплата картой}",http://dmitrov-ice.ru,https://vk.com/scdmitrov,,,https://www.instagram.com/scdmitrov/,,http://ledokat.ru/image/original/rink/51/5d891f860a3312.32144658.jpg,https://dmitrov-ice.ledokat.ru,,,{},,г.Дмитров,56.355884,37.52289,"{http://ledokat.ru/image/original/rink/51/5d34e8d36b5e26.53351641.jpg, http://ledokat.ru/image/original/rink/51/5d34e8d5875d86.93386754.jpg, http://ledokat.ru/image/original/rink/51/5d34e8d10424a0.24492327.jpg, http://ledokat.ru/image/original/rink/51/5d34e8d4e037e6.99901136.jpg}",{},,,,
Ледовый дворец  Наро-Фоминск им. В. Шалимова,Ледовый дворец  Наро-Фоминск им. В. Шалимова,"г.Наро-Фоминск, ул. Профсоюзная, 36, кор. Б",{+7 (925) 036-00-63},"{Бросковая зона, Зона ОФП, Зона СФП, Тренажерный зал, Гимнастический зал, Массовое катание, Хоккейное катание, Фигурное катание, Раздевалки, Кафе, Парковка, Заточка коньков, Душ, Аренда коньков, Инвентарь, Медкабинет, Бесплатный Wi-Fi, Оплата картой}",https://lednf.ru,,,,,,http://ledokat.ru/image/original/rink/522/6005fb8b2374f4.23317907.jpg,https://naro-fominsk-LD-salimova.ledokat.ru,,,{},,г.Наро-Фоминск,55.375577,36.738194,"{http://ledokat.ru/image/original/rink/522/6005fb862ef167.60125859.jpg, http://ledokat.ru/image/original/rink/522/6005fb893a47e6.71077767.jpg}",{},,,,
Спортивный комплекс образовательного учреждения ул. Кошкина 13к2,Спортивный комплекс образовательного учреждения ул. Кошкина 13к2,"г.Москва, ул. Кошкина, 13, кор. 2",{+7 (499) 323-00-19},"{Массовое катание, Раздевалки, Заточка коньков, Аренда коньков}",,,,,,Открытый бесплатный сезонный дворовый каток,http://ledokat.ru/image/original/rink/574/6128f2f22cd637.06752854.jpg,https://dvorkoshkina.ledokat.ru,,,{},,г.Москва,55.640878,37.674678,{},{},,,,
Дворовый каток Каширский проезд 9к1,Дворовый каток Каширский проезд 9к1,"г.Москва, ул. Каширский проезд, 9, кор. 1",{+7 (499) 612-07-46},"{Массовое катание, Раздевалки, Заточка коньков, Аренда коньков}",,,,,,,http://ledokat.ru/image/original/rink/636/6132355e108417.06823374.jpg,https://dvorkashirskijproezd.ledokat.ru,,,{},,г.Москва,55.659246,37.624534,{},{},,,,
Центр хоккейного мастерства,Центр хоккейного мастерства,"г.Москва, ул. Строительный пр-д, 7А, кор. к18",{+7 (929) 992-85-02},"{Бросковая зона, Зона ОФП, Сухой лед, Тренажерный зал, Гимнастический зал, Хоккейная беговая дорожка, Хоккейное катание, Фигурное катание, Раздевалки, Кафе, Парковка, Заточка коньков, Душ, Инвентарь}",http://hockey-chm.ru,https://vk.com/hockeychm,https://www.facebook.com/Центр-Хоккейного-Мастерства-1450481075091636,https://www.youtube.com/channel/UCHGiryr-tq64bs5hUfL5sCA,https://instagram.com/hockey_chm?utm_source=ig_profile_share&igshid=zkghad2i0orw,"Центр хоккейного мастерства (ЦХМ) – современный спортивный ледовый комплекс, расположенный на Северо-Западе Москвы, где созданы все условия для развития и повышения индивидуального мастерства и командных и индивидуальных тренировок юных хоккеистов, а также взрослых любителей хоккея. 

Ледовый дворец ЦХМ включает две ледовые арены - Большую и Малую, 7 комфортных раздевалок, кафе. В Ледовом дворце ЦХМ также расположены специализированные хоккейные тренажеры и оборудование: хоккейные конькобежные дорожки, интерактивные ворота, программа видеоанализа техники катания, программа обучения техники катания, навигация бросков, программа, развивающая периферическое зрение, диагностическое оборудование функциональной готовности спортсмена. Есть отдельный зал ОФП и бросковая зона, тренажерный зал и гимнастический зал. Все это позволяет проводить различные виды тренировок по хоккею под руководством опытных тренеров – как индивидуальных, так и групповых, для детей и взрослых. В Центре хоккейного мастерства предлагаются тренировки для вратарей, тренировки для защитников, есть тренировки для начинающих хоккеистов, и для опытных любителей хоккея. 
В Ледовом дворце ЦХМ есть все условия для проведения командных и сезонных хоккейных сборов. В ЦХМ возможна аренда льда и спортивных зон не только любителям хоккея, но и для занятий фигурным катанием. В Ледовом дворце ЦХМ работает детская школа хоккея «Львы ЦХМ» в которой занимаются юные хоккеисты начиная с 4-5 лет.",http://ledokat.ru/image/original/rink/27/5d221d4df1f486.34132894.jpg,https://hockeychm.ledokat.ru,,,{Тушинская},,г.Москва,55.837186,37.428908,"{http://ledokat.ru/image/original/rink/27/5d8bcb2b76c083.68736742.jpg, http://ledokat.ru/image/original/rink/27/5d221d4ed6aca8.07606585.jpg, http://ledokat.ru/image/original/rink/27/5d221d4e582a51.01625839.jpg, http://ledokat.ru/image/original/rink/27/5d8bcb2674ff59.72485569.jpg}",{},,,,
ЛСК Лидер,ЛСК Лидер,"г.Москва, ул. Победы, 2",{+7 (496) 506-08-08},"{Зона ОФП, Тренажерный зал, Гимнастический зал, Массовое катание, Хоккейное катание, Фигурное катание, Раздевалки, Кафе, Душ, Аренда коньков}",http://лск-лидер.рф/,,,,,,http://ledokat.ru/image/original/rink/29/5d22227f8d4092.41033096.jpg,https://lsk-lider.ledokat.ru,,,{},,г.Москва,55.971542,37.95913,{},{},,,,
Каток Vegas Крокус-Сити,Каток Vegas Крокус-Сити,"г.Москва, ул. МКАД, 66-й км, 1",{+7 (495) 215-00-02},"{Массовое катание, Раздевалки, Кафе, Парковка, Заточка коньков, Аренда коньков}",http://rusled.ru/vegas-2,,https://www.facebook.com/ledoice,,https://www.instagram.com/ledo_ice/,,http://ledokat.ru/image/original/rink/42/5d347b855862b7.90279537.jpg,https://vegas-krokus-city.ledokat.ru,,,{Мякинино},,г.Москва,55.820766,37.388148,{http://ledokat.ru/image/original/rink/42/5d347b84c15fd0.50783458.jpg},{},,,,
Дворец спорта Лобня,Дворец спорта Лобня,"г.Лобня, ул. Ленина, 65, кор. 1",{+7 (495) 577-41-30},"{Зона ОФП, Тренажерный зал, Гимнастический зал, Массовое катание, Хоккейное катание, Фигурное катание, Раздевалки, Парковка, Заточка коньков, Аренда коньков, Медкабинет}",http://dsplobnya.ru,,,,,,http://ledokat.ru/image/original/rink/49/5d34a7bfacd673.27299484.jpg,https://ds-lobnya.ledokat.ru,,,{},,г.Лобня,56.008208,37.451528,"{http://ledokat.ru/image/original/rink/49/5d34a7bf13e6d5.09972505.jpg, http://ledokat.ru/image/original/rink/49/5d74fd31eca495.45863806.jpg, http://ledokat.ru/image/original/rink/49/5d74fd3670e376.84548405.jpg}",{},,,,
ЛДС Кристалл,ЛДС Кристалл,"г.Электросталь, ул. Радио, 3",{+7 (496) 573-34-08},"{Зона ОФП, Тренажерный зал, Гимнастический зал, Массовое катание, Хоккейное катание, Фигурное катание, Раздевалки, Душ}",https://mirsportastal.ru,https://vk.com/kristall_lds,https://www.facebook.com/mirsporta.stal,,https://www.instagram.com/mirsportastal/,,http://ledokat.ru/image/original/rink/52/5d76b01e5c43f6.91092592.jpg,https://lsd-kristall.ledokat.ru,,,{},,г.Электросталь,55.783023,38.44555,{},{},,,,
Спортивная школа  номер 7,Спортивная школа  номер 7,"г.Москва, ул. Чоботовская, 6",{+7 (495) 733-03-69},"{Бросковая зона, Зона ОФП, Зона СФП, Тренажерный зал, Массовое катание, Хоккейное катание, Фигурное катание, Ночное катание, Раздевалки, Парковка, Заточка коньков, Душ, Медкабинет}",http://www.s7mossport.ru,,,,,,http://ledokat.ru/image/original/rink/405/5d77dcddc9dbc1.30505114.jpg,https://s7-mos-sport.ledokat.ru,,,{Новопеределкино},,г.Москва,55.645994,37.351473,{},{},,,,
Юрловский,Юрловский,"г.Москва, ул. Юрловский проезд, 6",{+7 (926) 400-84-40},"{Массовое катание, Хоккейное катание, Фигурное катание, Раздевалки, Душ, Инвентарь}",https://sport-vsegda.ru/yurlovsky,,,,,,http://ledokat.ru/image/original/rink/550/608829debd96a1.90427985.jpg,https://yurlovsky.ledokat.ru,,,{},,г.Москва,55.867415,37.625917,"{http://ledokat.ru/image/original/rink/550/608829c66e6c72.27840622.jpg, http://ledokat.ru/image/original/rink/550/608829c6ce0351.57150754.jpg}",{},,,,
Дворовый каток ул Вишневая 8к16,Дворовый каток ул Вишневая 8к16,"г.Москва, ул. Вишневая, 8, кор. 16",{+7 (495) 490-68-59},{Массовое катание},,,,,,Открытый бесплатный дворовый каток,http://ledokat.ru/image/original/rink/569/6128ebb01beb34.32576399.jpg,https://dvorvishnevaya.ledokat.ru,,,{},,г.Москва,55.830907,37.447494,{},{},,,,
Дворовый каток ул Вешняковская 37,Дворовый каток ул Вешняковская 37,"г.Москва, ул. Вешняковская, 37",{+7 (495) 770-09-42},{Массовое катание},,,,,,,http://ledokat.ru/image/original/rink/615/6132158a093325.67507549.jpg,https://dvorveshnjakovskaja.ledokat.ru,,,{},,г.Москва,55.720028,37.82396,{},{},,,,
Каток Битцевский лес,Каток Битцевский лес,"г.Москва, ул. МКАД, 36-й километр, 14",{+7 (499) 739-27-05},"{Массовое катание, Раздевалки, Заточка коньков, Аренда коньков}",,,,,,,http://ledokat.ru/image/original/rink/652/613244461c5db6.23208146.jpg,https://dvorbitcevskijles.ledokat.ru,,,{},,г.Москва,55.583546,37.550477,{},{},,,,
Снеговик,Снеговик,"г.Дубна, ул. П-кт Боголюбова, 24, кор. А",{+7 (496) 213-37-80},"{Массовое катание, Хоккейное катание, Фигурное катание, Аренда коньков}",,https://vk.com/katok_snegovik,,,,,http://ledokat.ru/image/original/rink/48/5d34a6685dae57.62442532.jpg,https://snegovik.ledokat.ru,,,{},,г.Дубна,56.735787,37.156925,{http://ledokat.ru/image/original/rink/48/5d34a668016170.56500507.jpg},{},,,,
Метеор,Метеор,"г.Жуковский, ул. Пушкина, 3",{+7 (498) 484-65-02},"{Массовое катание, Хоккейное катание, Фигурное катание, Раздевалки, Кафе, Заточка коньков, Аренда коньков, Медкабинет}",http://skmeteor.ru/uslugi/katok.php,http://vk.com/club15458472,https://www.facebook.com/groups/831674723616529,,http://instagram.com/skmeteor/,,http://ledokat.ru/image/original/rink/62/6040af5d167da5.22736866.jpg,https://katok-meteor.ledokat.ru,,,{},,г.Жуковский,55.589244,38.124285,"{http://ledokat.ru/image/original/rink/62/6040af5c9fc6f5.88427786.jpg, http://ledokat.ru/image/original/rink/62/6040af5c417e23.00259767.jpg, http://ledokat.ru/image/original/rink/62/5d77fbe2087081.19439178.jpg, http://ledokat.ru/image/original/rink/62/5d77fbe3a7b343.92650992.jpg}",{},,,,
Ледовая арена им. Третьяка,Ледовая арена им. Третьяка,"г.Щелково, ул. Фабричная, 4",{+7 (496) 250-07-88},"{Бросковая зона, Зона ОФП, Зона СФП, Тренажерный зал, Массовое катание, Хоккейное катание, Фигурное катание, Раздевалки, Парковка, Заточка коньков, Душ, Аренда коньков, Медкабинет}",http://ice-arena.3dn.ru,,,,,"Ледовая арена в г Щелково, Подмосковье. Есть СДЮШОР.",http://ledokat.ru/image/original/rink/401/5d75612b5f3567.05410669.jpg,https://ice-arena-3dn.ledokat.ru,,,{},,г.Щелково,55.917455,38.010055,"{http://ledokat.ru/image/original/rink/401/5d75612abf2305.41410197.jpg, http://ledokat.ru/image/original/rink/401/5d75612b0dcd27.67722786.jpg, http://ledokat.ru/image/original/rink/401/5d756137865ac3.01374883.jpg}",{},,,,
Каток в парке у прудов Радуга,Каток в парке у прудов Радуга,"г.Москва, ул. Вешняковская, 16",{+7 (495) 309-53-42},"{Массовое катание, Раздевалки, Заточка коньков, Аренда коньков}",,,,,,Открытый сезонный каток,http://ledokat.ru/image/original/rink/568/6128eb123b9ed2.15794681.jpg,https://raduga.ledokat.ru,,,{},,г.Москва,55.725950,37.827329,{},{},,,,
Каток в Парке Дубки,Каток в Парке Дубки,"г.Москва, ул. Немчинова, 12",{},"{Массовое катание, Раздевалки, Заточка коньков, Аренда коньков}",,,,,,Открытый бесплатный сезонный каток в Парке Дубки,http://ledokat.ru/image/original/rink/582/612a1087740853.51161050.jpg,https://parkdubki.ledokat.ru,,,{},,г.Москва,55.822634,37.565657,{},{},,,,
Каток Русская Зима на ул Красного Маяка,Каток Русская Зима на ул Красного Маяка,"г.Москва, ул. Красного Маяка, 28",{},"{Массовое катание, Раздевалки, Заточка коньков, Аренда коньков}",,,,,,Открытый сезонный каток,http://ledokat.ru/image/original/rink/596/612d551f1427c7.38275530.jpg,https://ruszimaredmayak.ledokat.ru,,,{},,г.Москва,55.613041,37.593030,{},{},,,,
Дворовый каток ул Большая Полянка 28к1,Дворовый каток ул Большая Полянка 28к1,"г.Москва, ул. Большая Полянка, 28, кор. 1",{+7 (495) 951-86-00},{Массовое катание},,,,,,,http://ledokat.ru/image/original/rink/611/613208e37ff453.11451363.jpg,https://dvorbolshajapoljanka.ledokat.ru,,,{},,г.Москва,55.736012,37.618659,{},{},,,,
Дворовый каток ул Голубинская 7к2,Дворовый каток ул Голубинская 7к2,"г.Москва, ул. Голубинская, 7, кор. 2",{+7 (495) 422-02-33},"{Раздевалки, Заточка коньков, Аренда коньков}",,,,,,,http://ledokat.ru/image/original/rink/622/6132213264d004.52248504.jpg,https://dvorgolubinskaja.ledokat.ru,,,{},,г.Москва,55.605999,37.514805,{},{},,,,
Дворовый каток Есенинский бульвар 1-26к1,Дворовый каток Есенинский бульвар 1-26к1,"г.Москва, ул. Есенинский бульвар, 1, кор. 26к1",{+7 (499) 172-69-78},{Массовое катание},,,,,,,http://ledokat.ru/image/original/rink/626/6132261852db17.12834540.jpg,https://dvoreseninskijbulvar.ledokat.ru,,,{},,г.Москва,55.707699,37.781811,{},{},,,,
Дворовый каток набережная Шитова 4к1,Дворовый каток набережная Шитова 4к1,"г.Москва, ул. набережная Шитова, 4, кор. 1",{+7 (499) 161-10-09},"{Массовое катание, Раздевалки, Заточка коньков, Аренда коньков}",,,,,,,http://ledokat.ru/image/original/rink/654/613246620058c2.32181957.jpg,https://dvornaberezhnajaShitova.ledokat.ru,,,{},,г.Москва,55.800499,37.731074,{},{},,,,
ФОК ЛД ЗВЕЗДА,ФОК ЛД ЗВЕЗДА,"г.Москва, ул. Лодочная, 12",{+7 (499) 493-37-38},"{Хоккейное катание, Фигурное катание, Раздевалки, Душ, Инвентарь}",https://www.sport-szao.ru/kopiya-lazurnyj,https://vk.com/cfkis.szao,https://www.facebook.com/Центр-физической-культуры-и-спорта-СЗАО-гМосквы-444672065607001/?ref=hl,,https://www.instagram.com/cfkis_szao/,,http://ledokat.ru/image/original/rink/43/5d347cbb881357.39968374.jpg,https://ld-zvezda.ledokat.ru,,,{Сходненская},,г.Москва,55.842099,37.464057,{},{},,,,
Снежком,Снежком,"г.Красногорск, ул. Красногорский б-р, 4",{+7 (495) 225-22-33},"{Зона ОФП, Тренажерный зал, Массовое катание, Хоккейное катание, Фигурное катание, Ночное катание, Раздевалки, Кафе, Парковка, Заточка коньков, Душ, Аренда коньков, Инвентарь, Медкабинет, Бесплатный Wi-Fi, Оплата картой}",http://www.snej.com,,https://www.facebook.com/snejcom/,,,,http://ledokat.ru/image/original/rink/61/5d77f9537093e7.50906594.jpg,https://snejcom.ledokat.ru,,,{},,г.Красногорск,55.815848,37.362729,"{http://ledokat.ru/image/original/rink/61/5d77f95305fe85.75703962.jpg, http://ledokat.ru/image/original/rink/61/5d77f95291baa5.49931038.jpg, http://ledokat.ru/image/original/rink/61/5d77f953d58570.13616852.jpg}",{},,,,
Ледовый дворец Крылатское,Ледовый дворец Крылатское,"г.Москва, ул. Крылатская, 16",{+7 (499) 140-93-29},"{Зона ОФП, Тренажерный зал, Гимнастический зал, Массовое катание, Фигурное катание, Раздевалки, Кафе, Парковка, Заточка коньков, Душ, Аренда коньков, Оплата картой}",https://sport.center,https://vk.com/icesportcenter,https://www.facebook.com/sport.center.krylatskoye,,https://www.instagram.com/ice.sport.center/,,http://ledokat.ru/image/original/rink/390/5d3ca2f5b0bce4.44732911.jpg,https://krylatskoe-moscow.ledokat.ru,,,{Крылатское},,г.Москва,55.7660199,37.4350791,"{http://ledokat.ru/image/original/rink/390/5d3ca2f63b3a22.13530659.jpg, http://ledokat.ru/image/original/rink/390/5d3ca2f69a3ce8.20558258.jpg}",{},,,,
MegaIce ТЦ Каширская Плаза,MegaIce ТЦ Каширская Плаза,"г.Москва, ул. Каширское шоссе, 61, кор. 2",{+7 (000) 000-00-00},"{Массовое катание, Кафе, Парковка, Заточка коньков, Аренда коньков, Бесплатный Wi-Fi, Оплата картой}",http://megaice-kashirka.ru,https://vk.com/megaicel,https://www.facebook.com/megaicekatok/,,https://www.instagram.com/mega_ice_rink/,,http://ledokat.ru/image/original/rink/418/5d87a603160bb9.70185332.jpg,https://megaice-kasirka.ledokat.ru,,,{Домодедовская},,г.Москва,55.621404,37.713953,{http://ledokat.ru/image/original/rink/418/5d87a602b6ab30.22333698.jpg},{},,,,
Каток на стадионе Юбилейный,Каток на стадионе Юбилейный,"г.Москва, ул. Мосфильмовская, 37, кор. 1",{+7 (495) 589-50-99},"{Массовое катание, Раздевалки, Заточка коньков, Аренда коньков}",,,,,,"Открытый каток на стадионе ""Юбилейный""",http://ledokat.ru/image/original/rink/591/612a21c59a4ff0.61435111.jpg,https://yubileiny.ledokat.ru,,,{},,г.Москва,55.711498,37.511787,{},{},,,,
Дворовый каток ул Азовская 9к2,Дворовый каток ул Азовская 9к2,"г.Москва, ул. Азовская, 9, кор. 2",{+7 (499) 122-33-35},{Массовое катание},,,,,,,http://ledokat.ru/image/original/rink/603/6130e55e9e42f3.82569987.jpg,https://dvorazovskaja.ledokat.ru,,,{},,г.Москва,55.658129,37.602005,{},{},,,,
Дворовый каток Борисовский проезд 11к2,Дворовый каток Борисовский проезд 11к2,"г.Москва, ул. Борисовский проезд, 11, кор. 2",{+7 (495) 394-01-36},{Массовое катание},,,,,,,http://ledokat.ru/image/original/rink/612/613209e8e741f4.27009166.jpg,https://dvorborisovskijproezd.ledokat.ru,,,{},,г.Москва,55.627432,37.720888,{},{},,,,
Дворовый каток Востряковский проезд 23к3,Дворовый каток Востряковский проезд 23к3,"г.Москва, ул. Востряковский проезд, 23, кор. 3",{+7 (495) 384-05-00},"{Массовое катание, Раздевалки, Заточка коньков, Аренда коньков}",,,,,,,http://ledokat.ru/image/original/rink/621/61322051e37820.07171035.jpg,https://dvorvostrjakovskijproezd.ledokat.ru,,,{},,г.Москва,55.57579,37.655356,{},{},,,,
Дворовый каток ул Грекова 4,Дворовый каток ул Грекова 4,"г.Москва, ул. Грекова, 4",{+7 (499) 476-77-86},"{Массовое катание, Раздевалки, Заточка коньков, Аренда коньков}",,,,,,,http://ledokat.ru/image/original/rink/623/6132220a85dc60.55715267.jpg,https://dvorgrekova.ledokat.ru,,,{},,г.Москва,55.885166,37.662308,{},{},,,,
Дворовый каток ул Краснодонская 34к2,Дворовый каток ул Краснодонская 34к2,"г.Москва, ул. Краснодонская, 34, кор. 2",{+7 (499) 722-74-75},{Массовое катание},,,,,,,http://ledokat.ru/image/original/rink/641/61323af1b1f643.59272683.jpg,https://dvorkrasnodonskaja34k2.ledokat.ru,,,{},,г.Москва,55.669869,37.747379,{},{},,,,
Молодежка,Молодежка,"г.Москва, ул. Молодогвардейская, 63, кор. 65",{+7 (980) 888-80-40},"{Бросковая зона, Зона ОФП, Зона СФП, Сухой лед, Тренажерный зал, Хоккейная беговая дорожка, Хоккейное катание, Фигурное катание, Ночное катание, Раздевалки, Кафе, Парковка, Душ, Инвентарь, Медкабинет, Бесплатный Wi-Fi, Оплата картой}",http://scmolodezhka.ru,,,,https://www.instagram.com/chp_molodezhka/,,http://ledokat.ru/image/original/rink/56/5d7e32ef92c3f7.35841440.jpg,https://scmolodezhka.ledokat.ru,,,{Молодежная},,г.Москва,55.732377,37.388798,"{http://ledokat.ru/image/original/rink/56/5d7e32ecb7f4b5.52079101.jpg, http://ledokat.ru/image/original/rink/56/5d7e32eda2f174.75213895.jpg, http://ledokat.ru/image/original/rink/56/5d7e32ee565c99.87561229.jpg, http://ledokat.ru/image/original/rink/56/5d7e32eec0d8f6.13012141.jpg}",{},,,,
Ледовый комплекс Citysport Ленинский,Ледовый комплекс Citysport Ленинский,"г.Москва, ул. 5 Донской проезд, 15, кор. 7",{+7 (499) 653-93-66},"{Бросковая зона, Зона ОФП, Массовое катание, Хоккейное катание, Фигурное катание, Ночное катание, Раздевалки, Кафе, Парковка, Душ, Инвентарь}",http://citysport.pro/hockey,https://vk.com/citysportpro,https://www.facebook.com/citysport.pro/,https://www.youtube.com/channel/UCBGKWJfHtvsNTDS_uzv3z5A,https://www.instagram.com/citysportpro/,,http://ledokat.ru/image/original/rink/147/5f7f1b8f1ea882.96676794.jpg,https://citysport-leninsky.ledokat.ru,,,{Ленинский проспект},,г.Москва,55.705417,37.600415,"{http://ledokat.ru/image/original/rink/147/5f7f1b8ebd8331.41038376.jpg, http://ledokat.ru/image/original/rink/147/5f7f1b8e4596d9.28569921.jpg}",{},,,,
RIga Ice Land,RIga Ice Land,"г.Москва, ул. Новорижское шоссе, 9, кор. 5",{+7 (495) 407-06-07+7 (926) 167-98-27},"{Бросковая зона, Зона ОФП, Зона СФП, Тренажерный зал, Массовое катание, Хоккейное катание, Фигурное катание, Раздевалки, Кафе, Парковка, Заточка коньков, Душ, Аренда коньков, Инвентарь}",http://rigaiceland.ru,https://m.vk.com/rigaiceland,https://www.facebook.com/rigaiceland/?fref=ts,,https://www.instagram.com/rigaiceland/,,http://ledokat.ru/image/original/rink/449/5d94bd443b71a0.41698515.jpg,https://riga-ice-land.ledokat.ru,,,{},,г.Москва,55.7859058,37.2405939,"{http://ledokat.ru/image/original/rink/449/5d94bd44927776.40373495.jpg, http://ledokat.ru/image/original/rink/449/5d94bd44e72757.28735243.jpg, http://ledokat.ru/image/original/rink/449/5d94bd457c7ad8.59120567.jpg, http://ledokat.ru/image/original/rink/449/5d94bd461268a6.06591931.jpg}",{},,,,
Спортивный комплекс образовательного учреждения ул Привольная 37,Спортивный комплекс образовательного учреждения ул Привольная 37,"г.Москва, ул. Привольная, 37",{+7 (495) 704-08-37},"{Массовое катание, Заточка коньков, Аренда коньков}",,,,,,,http://ledokat.ru/image/original/rink/573/6128f2333e0f88.66658111.jpg,https://dvorprivolnaya.ledokat.ru,,,{},,г.Москва,55.691613,37.851277,{},{},,,,
Спортивный комплекс образовательного учреждения б-р Яна Райниса 43к2,Спортивный комплекс образовательного учреждения б-р Яна Райниса 43к2,"г.Москва, ул. Бульвар Яна Райниса, 43, кор. 2",{+7 (495) 948-66-22},"{Массовое катание, Раздевалки, Заточка коньков, Аренда коньков}",,,,,,Открытый бесплатный дворовый каток,http://ledokat.ru/image/original/rink/577/612a0ae9955e73.27665601.jpg,https://dvorrainisa.ledokat.ru,,,{},,г.Москва,55.848807,37.410079,{},{},,,,
Каток в Парке 850-летия Москвы,Каток в Парке 850-летия Москвы,"г.Москва, ул. Марьинский парк, 10, кор. 4",{+7 (495) 657-45-12},"{Массовое катание, Заточка коньков, Аренда коньков}",,,,,,Платный открытый сезонный каток в Парке 850-летия Москвы,http://ledokat.ru/image/original/rink/588/612a19a3873895.93579922.jpg,https://850letmoscow.ledokat.ru,,,{},,г.Москва,55.665105,37.789919,{},{},,,,
Открытый ледовый каток ул.Производстванная 6с39,Открытый ледовый каток ул.Производстванная 6с39,"г.Москва, ул. Производственная, 6, кор. с39",{+7 (495) 435-22-20},{Массовое катание},,,,,,Открытый бесплатный дворовый каток,http://ledokat.ru/image/original/rink/594/612d522b5d07f5.91953882.jpg,https://dvorproisvodstv.ledokat.ru,,,{},,г.Москва,55.644943,37.383606,{},{},,,,
Каток в Парке по Ангарской,Каток в Парке по Ангарской,"г.Москва, ул. Ангарская, 53, кор. 1",{+7 (499) 908-35-00},"{Массовое катание, Раздевалки, Заточка коньков, Аренда коньков}",,,,,,,http://ledokat.ru/image/original/rink/606/6130e986d38ec1.03565994.jpg,https://katokvparkepoangarskoj.ledokat.ru,,,{},,г.Москва,55.881995,37.528972,{},{},,,,
Дворовый каток Зеленоград к307,Дворовый каток Зеленоград к307,"г.Москва, ул. Зеленоград, 307",{+7 (499) 736-78-86},{Массовое катание},,,,,,,http://ledokat.ru/image/original/rink/632/613231767213c5.18066711.jpg,https://dvorzelenograd307.ledokat.ru,,,{},,г.Москва,55.997915,37.215918,{},{},,,,
Дворовый каток ул Краснохолмская набережная 1-15,Дворовый каток ул Краснохолмская набережная 1-15,"г.Москва, ул. Краснохолмская набережная, 1, кор. 15",{+7 (495) 911-12-81},{Массовое катание},,,,,,,http://ledokat.ru/image/original/rink/642/61323bb6289062.07015812.jpg,https://dvorkrasnoholmskajanaberezhnaja.ledokat.ru,,,{},,г.Москва,55.736098,37.649669,{},{},,,,
Ледовый дворец ЦСКА,Ледовый дворец ЦСКА,"г.Москва, ул. Ленинградский проспект, 39, кор. 41",{+7 (499) 517-77-17},"{Зона ОФП, Гимнастический зал, Хоккейное катание, Раздевалки, Кафе, Парковка, Заточка коньков, Душ, Инвентарь, Медкабинет}",http://cska-hockey.ru/,https://vk.com/hccska,https://www.facebook.com/cska.hockey,http://www.youtube.com/user/CSKAHockey,https://www.instagram.com/hccska/,,http://ledokat.ru/image/original/rink/5/5d17e43e97f9a5.52865784.jpg,https://ld-cska.ledokat.ru,,,{Аэропорт},,г.Москва,55.794684,37.538260,{http://ledokat.ru/image/original/rink/5/5d17e43f6f9e71.39288741.jpg},{},,,,
Каток Олимп,Каток Олимп,"г.Мытищи, ул. Мира, 51",{+7 (495) 120-24-40+7 (495) 727-72-76+7 (985) 727-72-76},"{Массовое катание, Хоккейное катание, Фигурное катание, Раздевалки, Кафе, Заточка коньков, Аренда коньков}",http://katok-olimp.ru/,,,,,,http://ledokat.ru/image/original/rink/21/5d221766453264.58760919.jpg,https://katok-olimp.ledokat.ru,,,{},,г.Мытищи,55.919927,37.708401,"{http://ledokat.ru/image/original/rink/21/5d8e1da23ae4d6.78848125.jpg, http://ledokat.ru/image/original/rink/21/5d8e1da07e85e7.63157486.jpg, http://ledokat.ru/image/original/rink/21/5d8e1da199a064.05519357.jpg, http://ledokat.ru/image/original/rink/21/5d2217d93c1748.07317432.jpg}",{},,,,
Мой Каток,Мой Каток,"г.Москва, ул. Двинцев, 3",{+7 (495) 120-37-35+7 (968) 368-67-27},"{Бросковая зона, Зона ОФП, Сухой лед, Хоккейная беговая дорожка, Хоккейное катание, Раздевалки, Кафе, Парковка, Душ, Инвентарь, Оплата картой}",http://moykatok.ru/,,,https://www.youtube.com/channel/UCImjiKfdQWAefdwYJczInVw,http://www.instagram.com/moy.katok,"ЧТОБЫ УЗНАТЬ РАСПИСАНИЕ И ЦЕНЫ НАЖМИТЕ КНОПКУ ""ЗАБРОНИРОВАТЬ ОНЛАЙН"" ВЫШЕ.",http://ledokat.ru/image/original/rink/26/5d221ca4670e81.72756231.jpg,https://moykatok.ledokat.ru,,,{Савеловская},,г.Москва,55.797205,37.595393,"{http://ledokat.ru/image/original/rink/26/5d221ca4df58e7.67160913.jpg, http://ledokat.ru/image/original/rink/26/5d8bc67a32e162.02427422.jpg, http://ledokat.ru/image/original/rink/26/5d221ca31c6ba9.26760023.jpg, http://ledokat.ru/image/original/rink/26/5d8bc7318fccc7.53807196.jpg}",{},,,,
Каток Отрада,Каток Отрада,"г.Москва, ул. Пятницкое шоссе, Отрада",{+7 (925) 740-97-97},"{Массовое катание, Раздевалки, Кафе, Заточка коньков, Аренда коньков, Инвентарь, Оплата картой}",https://otradaclub.com/services/otkrytyj-katok-1,https://vk.com/public44480317,https://www.facebook.com/otradaclubofficial,,https://www.instagram.com/otradaclub/,,http://ledokat.ru/image/original/rink/64/5d7932d3907a24.23611881.jpg,https://otrada-club-otkrytyj-katok-1.ledokat.ru,,,{Митино Пятницкое шоссе Тушинская},,г.Москва,55.875266,37.333002,"{http://ledokat.ru/image/original/rink/64/5d7932d35174c4.29294245.jpg, http://ledokat.ru/image/original/rink/64/5d7932d304ccf4.73835437.jpg}",{},,,,
ЛЕДО на Юности,ЛЕДО на Юности,"г.Москва, ул. Юности, 1, кор. Б",{+7 (495) 215-00-02},"{Массовое катание, Хоккейное катание, Фигурное катание, Раздевалки, Душ, Инвентарь}",http://rusled.ru/ledo/,,https://www.facebook.com/ledoice,,https://www.instagram.com/ledo_ice/,,http://ledokat.ru/image/original/rink/547/607ca14ac1b7d9.62000829.jpg,https://ledo-yunost.ledokat.ru,,,{Домодедовская},,г.Москва,55.736543,37.817092,{http://ledokat.ru/image/original/rink/547/607ca149875754.36073853.jpg},{},,,,
Дворовый каток ул. 800-летия Москвы 32,Дворовый каток ул. 800-летия Москвы 32,"г.Москва, ул. 800-летия Москвы, 32",{+7 (499) 900-46-77},{Массовое катание},,,,,,,http://ledokat.ru/image/original/rink/555/612660ee86fd37.67923296.jpg,https://dvor800moscow.ledokat.ru,,,{},,г.Москва,55.878931,37.564721,{},{},,,,
Открытый ледовый каток Мичуринский проспект 17,Открытый ледовый каток Мичуринский проспект 17,"г.Москва, ул. Мичуринский проспект, 17",{+7 (495) 443-43-35},"{Массовое катание, Раздевалки, Заточка коньков}",,,,,,Открытый бесплатный дворовый каток,http://ledokat.ru/image/original/rink/578/612a0c8035c199.87483131.jpg,https://dvormichurinski.ledokat.ru,,,{},,г.Москва,55.695862,37.507377,{},{},,,,
Дворовый каток ул Вешняковская 16Г,Дворовый каток ул Вешняковская 16Г,"г.Москва, ул. Вешняковская, 16, кор. Г",{+7 (495) 770-09-42},"{Массовое катание, Раздевалки, Заточка коньков, Аренда коньков}",,,,,,Открытый бесплатный сезонный дворовый каток,http://ledokat.ru/image/original/rink/586/612a174d78b128.77975597.jpg,https://dvorveshnakovskaya.ledokat.ru,,,{},,г.Москва,55.725950,37.827329,{},{},,,,
Каток Русская Зима Осторвитянова,Каток Русская Зима Осторвитянова,"г.Москва, ул. Островитянова, 10",{+7 (495) 532-00-21},"{Массовое катание, Раздевалки, Заточка коньков, Аренда коньков}",,,,,,Открытый платный сезонный каток,http://ledokat.ru/image/original/rink/595/612d53e87bf403.14420908.jpg,https://ruszimaostrovityanova.ledokat.ru,,,{},,г.Москва,55.638648,37.503900,{},{},,,,
Дворовый каток ул Академика Понтрягина 21к1,Дворовый каток ул Академика Понтрягина 21к1,"г.Москва, ул. Академика Понтрягина, 21, кор. 1",{+7 (495) 712-70-11},{Массовое катание},,,,,,,http://ledokat.ru/image/original/rink/604/6130e6f51db750.86080891.jpg,https://dvorakademikapontrjagina.ledokat.ru,,,{},,г.Москва,55.532844,37.50372,{},{},,,,
Дворец спорта Янтарь,Дворец спорта Янтарь,"г.Москва, ул. Маршала Катукова, 22",{+7 (499) 252-98-08+7 (985) 217-96-00},"{Бросковая зона, Зона ОФП, Тренажерный зал, Гимнастический зал, Хоккейная беговая дорожка, Хоккейное катание, Фигурное катание, Раздевалки, Кафе, Парковка, Заточка коньков, Душ, Инвентарь, Медкабинет}",http://stroginosport.ru,,,,,,http://ledokat.ru/image/original/rink/7/5d17dcda124a96.52902423.jpg,https://Yantar.ledokat.ru,,,{Строгино},,г.Москва,55.804476,37.411346,{http://ledokat.ru/image/original/rink/7/5d17dd10ce38c7.65386797.jpg},{},,,,
Арена Бобры,Арена Бобры,"г.Пироговский, ул. Фабричная, кор. арена",{+7 (977) 395-94-79},"{Зона ОФП, Массовое катание, Хоккейное катание, Фигурное катание, Ночное катание, Раздевалки, Аренда коньков}",https://www.arenabobry.ru,https://vk.com/bobryarena,,,,,http://ledokat.ru/image/original/rink/16/5d1872e221e620.00049850.jpg,https://arenabobry.ledokat.ru,,,{},,г.Пироговский,55.9808881,37.7455784,"{http://ledokat.ru/image/original/rink/16/5d1872e2e14e87.92940743.jpg, http://ledokat.ru/image/original/rink/16/5d8fc46592b691.10775694.jpg}",{},,,,
Каток МЕГА Белая Дача,Каток МЕГА Белая Дача,"г.Москва, ул. 1-й Покровский пр-д, 5",{+7 (495) 645-95-52},"{Массовое катание, Фигурное катание, Раздевалки, Кафе, Парковка, Заточка коньков, Аренда коньков, Инвентарь, Оплата картой}",https://mega.ru/shops/595/belaya_dacha/,,,,,,http://ledokat.ru/image/original/rink/53/5d76b116b6cd48.42192023.jpg,https://mega-belaya-dacha.ledokat.ru,,,{Котельники},,г.Москва,55.653294,37.844208,{},{},,,,
Ледовый дворец имени В. Харламова,Ледовый дворец имени В. Харламова,"г.Клин, ул. Карла Маркса, 99",{+7 (496) 242-65-63},"{Бросковая зона, Зона ОФП, Зона СФП, Тренажерный зал, Массовое катание, Хоккейное катание, Фигурное катание, Раздевалки, Кафе, Парковка, Заточка коньков, Душ, Аренда коньков, Медкабинет}",http://klinldvorets.ru/index.php,https://vk.com/klinledoviy,https://www.facebook.com/KlinskiyLed/,,https://www.instagram.com/klin_led/,,http://ledokat.ru/image/original/rink/65/5d34eb7c1dd9d4.02048069.jpg,https://klin-l-dvorets.ledokat.ru,,,{},,г.Клин,56.319589,36.731618,{http://ledokat.ru/image/original/rink/65/5d34eb7ba96210.19137089.jpg},{},,,,
Каток Цветник на ВДНХ,Каток Цветник на ВДНХ,"г.Москва, ул. площадь дружбы народов",{+7 (495) 544-34-00},"{Массовое катание, Раздевалки, Кафе, Парковка, Заточка коньков, Аренда коньков, Медкабинет, Бесплатный Wi-Fi, Оплата картой}",http://katok.vdnh.ru/about/,https://vk.com/katoknavdnh,https://www.facebook.com/Каток-ВДНХ-2155194731397618/,http://www.youtube.com/channel/UC7jhb9mhk9ZQE719pFfe-vg,https://www.instagram.com/katoknavdnh,"Каток Цветник на ВДНХ –открытый катков для массового любительского катания на коньках. Каток расположен на Центральной аллее ВДНХ между фонтанами «Дружба народов» и «Каменный цветок». Площадь льда Катка Цветник составляет около 4,5 тыс. кв. м.  На Катке Цветник на ВДНХ можно весело провести время с друзьями и родными, покататься на коньках на свежем воздухе, послушать музыку, принять участие в различных развлекательных мероприятиях и конкурсах, которые организуются на катке. 

Каток Цветник на ВДНХ предоставляет услуги проката. В прокате 1500 пар коньков, из которых 500 пар фигурных, 500 пар хоккейных и 500 пар детских. На катке расположены 3 кафе, есть медицинский пункт. На Катке Цветник на ВНДХ также работают инструкторы по катанию, у которых вы можете взять уроки катания на коньках.",http://ledokat.ru/image/original/rink/421/5d87cd09c0e2c9.11440096.jpg,https://tsvetnik-vdnh.ledokat.ru,,,{},,г.Москва,55.829851,37.63182,"{http://ledokat.ru/image/original/rink/421/5d87cd0b2a5870.71002928.jpg, http://ledokat.ru/image/original/rink/421/5d87cd0a301820.14283075.jpg, http://ledokat.ru/image/original/rink/421/5d87cd0aa3d362.40984928.jpg}",{},,,,
Ледовый Дворец Подмосковье,Ледовый Дворец Подмосковье,"г.Воскресенск, ул. Менделеева, 20",{+7 (499) 397-70-11},"{Бросковая зона, Зона ОФП, Зона СФП, Тренажерный зал, Гимнастический зал, Массовое катание, Хоккейное катание, Фигурное катание, Раздевалки, Кафе, Парковка, Заточка коньков, Душ, Аренда коньков, Инвентарь, Медкабинет, Бесплатный Wi-Fi, Оплата картой}",https://voskrhimik.ru/arena/,https://vk.com/mu_sk_himik,https://www.facebook.com/hckhimik,,https://instagram.com/hckhimik,,http://ledokat.ru/image/original/rink/528/600f39558bd282.90846990.jpg,https://himik-podmoskovye.ledokat.ru,,,{},,г.Воскресенск,55.323674,38.667990,{http://ledokat.ru/image/original/rink/528/600f397051f700.48973015.jpg},{},,,,
Каток в парке Северные Дубки,Каток в парке Северные Дубки,"г.Москва, ул. Керамический проезд, 65, кор. 1",{+7 (499) 900-46-77},"{Массовое катание, Раздевалки, Заточка коньков, Аренда коньков}",,,,,,"Открытый бесплатный каток в Парке ""Северные Дубки""",http://ledokat.ru/image/original/rink/583/612a149952c396.39150844.jpg,https://severdubki.ledokat.ru,,,{},,г.Москва,55.890407,37.564684,{},{},,,,
Каток Искра Бари,Каток Искра Бари,"г.Москва, ул. Планерная, 12, кор. 1",{},"{Массовое катание, Заточка коньков}",,,,,,Дворовый бесплатный сезонный открытый каток,http://ledokat.ru/image/original/rink/589/612a1ae2733059.52431097.jpg,https://iskrabari.ledokat.ru,,,{},,г.Москва,55.862146,37.436634,{},{},,,,
Каток Усадьба Воронцово,Каток Усадьба Воронцово,"г.Москва, ул. Воронцовский парк, 3",{+7 (495) 580-26-78},"{Массовое катание, Раздевалки, Заточка коньков, Аренда коньков}",,,,,,,http://ledokat.ru/image/original/rink/620/61321ae8d52607.93742445.jpg,https://katokusadbavoroncovo.ledokat.ru,,,{},,г.Москва,55.6673,37.531963,{},{},,,,
Ледовый каток ул Летняя 1с1,Ледовый каток ул Летняя 1с1,"г.Москва, ул. Летняя, 1, кор. c1",{+7 (495) 350-15-53},{Массовое катание},,,,,,,http://ledokat.ru/image/original/rink/646/61323fa1491da2.91519434.jpg,https://dvorletnjaja.ledokat.ru,,,{},,г.Москва,55.688466,37.743103,{},{},,,,
Каток ЛЕДО,Каток ЛЕДО,"г.Москва, ул. Юности, 1, кор. Б",{+7 (495) 215-00-02},"{Массовое катание, Хоккейное катание, Фигурное катание, Раздевалки, Заточка коньков, Душ, Аренда коньков}",http://rusled.ru/ledo/,,https://www.facebook.com/ledoice,,https://www.instagram.com/ledo_ice/,,http://ledokat.ru/image/original/rink/25/5d221c23c37a57.15598118.jpg,https://katok-ledo.ledokat.ru,,,{Новогиреево},,г.Москва,55.736518,37.817187,"{http://ledokat.ru/image/original/rink/25/5d221c233b4343.24558076.jpg, http://ledokat.ru/image/original/rink/25/5d221c21dbd227.47819335.jpg, http://ledokat.ru/image/original/rink/25/5d221c22323c46.36962132.jpg, http://ledokat.ru/image/original/rink/25/5d221c228e3884.96864782.jpg}",{},,,,
СК Ледовый ЦСКА,СК Ледовый ЦСКА,"г.Москва, ул. Ленинградский проспект, 41",{+7 (495) 613-67-34},"{Хоккейное катание, Фигурное катание, Раздевалки, Парковка, Душ, Инвентарь}",http://cska.ru/objects/107,https://vk.com/public77467403,https://www.facebook.com/teamcska,https://www.youtube.com/channel/UC8rdc8TctqOk-iOHs3uiLDQ,https://instagram.com/teamcska,,http://ledokat.ru/image/original/rink/46/5d34e2f442e7d0.09523434.jpg,https://ledovy-cska.ledokat.ru,,,{Аэропорт},,г.Москва,55.7930416,37.5354151,{},{},,,,https://twitter.com/teamcska
Ледовая арена Дворец спорта РГУФК,Ледовая арена Дворец спорта РГУФК,"г.Москва, ул. Сиреневый бульвар, 4",{+7 (495) 961-31-11},"{Бросковая зона, Зона ОФП, Зона СФП, Тренажерный зал, Массовое катание, Хоккейное катание, Фигурное катание, Раздевалки, Парковка, Заточка коньков, Душ, Медкабинет}",http://halls.sportedu.ru/hall/ledovoe-pole,https://vk.com/club41423,https://www.facebook.com/sportedu,,https://www.instagram.com/rsupe_life/,,http://ledokat.ru/image/original/rink/54/5d76b73ad6a796.17378101.jpg,https://halls-sport-edu-ru-hall-ledovoe-pole.ledokat.ru,,,{Черкизовская Локомотив},,г.Москва,55.801081,37.760072,{},{},,,,
Каток в Парке Сказка,Каток в Парке Сказка,"г.Москва, ул. Крылатская, 18",{+7 (495) 133-65-56},"{Зона ОФП, Зона СФП, Тренажерный зал, Массовое катание, Хоккейное катание, Фигурное катание, Ночное катание, Раздевалки, Кафе, Парковка, Заточка коньков, Душ, Аренда коньков, Бесплатный Wi-Fi, Оплата картой}",https://parkskazka.com/places/katok/,https://vk.com/parkskazka,https://facebook.com/parkskazka,,https://instagram.com/parkskazka,,http://ledokat.ru/image/original/rink/60/5d77f557e2bc39.25894652.jpg,https://park-skazka-com-places-katok.ledokat.ru,,,{Молодежная Крылатское Пионерская},,г.Москва,55.771192,37.433202,"{http://ledokat.ru/image/original/rink/60/5d34eea9cded09.14900478.jpg, http://ledokat.ru/image/original/rink/60/5d77f558381669.32235466.jpg}",{},,,,
Дворовый каток ул Заповедная 28,Дворовый каток ул Заповедная 28,"г.Москва, ул. Заповедная, 28",{+7 (499) 473-15-65},"{Массовое катание, Раздевалки, Заточка коньков, Аренда коньков}",,,,,,Бесплатный открытый сезонный дворовый каток,http://ledokat.ru/image/original/rink/556/61266293d4ea25.92854504.jpg,https://dvorzapovednaya.ledokat.ru,,,{},,г.Москва,55.868891,37.645348,{},{},,,,
Каток ш. Энтузиастов,Каток ш. Энтузиастов,"г.Москва, ул. шоссе Энтузиастов, 33",{+7 (495) 532-00-26},"{Массовое катание, Раздевалки, Заточка коньков, Аренда коньков}",,,,,,Открытый сезонный каток,http://ledokat.ru/image/original/rink/567/61289fc04aca43.40814413.jpg,https://entusiastov.ledokat.ru,,,{},,г.Москва,55.764186,37.775124,{},{},,,,
Каток на Курганской,Каток на Курганской,"г.Москва, ул. Курганская, 10",{+7 (925) 866-66-63},"{Массовое катание, Раздевалки, Заточка коньков, Аренда коньков}",,,,,,Открытый платный каток на Курганской,http://ledokat.ru/image/original/rink/590/612a20f242ed09.00953979.jpg,https://kurganskaya.ledokat.ru,,,{},,г.Москва,55.830303,37.821167,{},{},,,,
Каток на Лосиноостровской,Каток на Лосиноостровской,"г.Москва, ул. Лосиноостровская, 31",{+7 (968) 474-08-19},"{Массовое катание, Раздевалки, Заточка коньков, Аренда коньков}",,,,,,Открытый дворовый сезонный каток,http://ledokat.ru/image/original/rink/597/612f95475b8656.98186609.jpg,https://losinoostrovsk.ledokat.ru,,,{},,г.Москва,55.826994,37.717869,{},{},,,,
Спортивный комплекс Кировский,Спортивный комплекс Кировский,"г.Москва, ул. Пришвина, 20",{+7 (495) 681-01-48},"{Массовое катание, Хоккейное катание, Фигурное катание, Раздевалки, Заточка коньков, Аренда коньков}",https://kirovskiy.mos.sport,,,,,Открытый сезонный каток у Спортивного комплекса Кировский,http://ledokat.ru/image/original/rink/599/612f9705e0deb7.93350596.jpg,https://kirovski.ledokat.ru,,,{},,г.Москва,55.886180,37.601214,{},{},,,,
Дворовый каток Космодамианская набережная 38с2,Дворовый каток Космодамианская набережная 38с2,"г.Москва, ул. Космодамианская набережная, 38, кор. с2",{+7 (495) 620-28-15},{Массовое катание},,,,,,,http://ledokat.ru/image/original/rink/637/613235f7ea2e19.01268496.jpg,https://dvorkosmodamianskajanaberezhnaja.ledokat.ru,,,{},,г.Москва,55.738267,37.644333,{},{},,,,
Локомотив,Локомотив,"г.Москва, ул. Большая Черкизовская, 125, кор. 4",{+7 (499) 161-93-85+7 (499) 161-99-01},"{Зона ОФП, Гимнастический зал, Массовое катание, Хоккейное катание, Фигурное катание, Раздевалки, Кафе, Парковка, Заточка коньков, Душ, Инвентарь, Оплата картой}",https://stadium.fclm.ru/object/5,,,,,,http://ledokat.ru/image/original/rink/12/5d186fdeb20b54.28713833.jpg,https://Lokomotiv-moscow.ledokat.ru,,,{Черкизовская},,г.Москва,55.806747,37.739608,"{http://ledokat.ru/image/original/rink/12/5d8b879ccef8a5.07476361.jpg, http://ledokat.ru/image/original/rink/12/5d8b879c642621.08922057.jpg}",{},,,,
Альпийский Лед,Альпийский Лед,"г.Москва, ул. Юных Ленинцев, 52, кор. 2",{+7 (926) 536-96-86},"{Массовое катание, Хоккейное катание, Фигурное катание, Раздевалки, Кафе, Заточка коньков, Аренда коньков}",http://katokalp.ru/,,,,,,http://ledokat.ru/image/original/rink/13/5d18706ca4d484.32545597.jpg,https://katokalp.ledokat.ru,,,{Кузьминки},,г.Москва,55.699533,37.763845,{},{},,,,
ГБУ СПОРТИВНАЯ ШКОЛА,ГБУ СПОРТИВНАЯ ШКОЛА,"г.Москва, ул. Заповедная, 3",{+7 (499) 477-82-81},"{Бросковая зона, Зона ОФП, Зона СФП, Тренажерный зал, Массовое катание, Хоккейное катание, Фигурное катание, Раздевалки, Душ, Медкабинет}",http://www.skmedvedkovo.ru,,,,,,http://ledokat.ru/image/original/rink/403/5d76badd503e24.57488005.jpg,https://sk-medvedkovo-ru.ledokat.ru,,,{Бабушкинская},,г.Москва,55.866455,37.633455,{},{},,,,
Каток в парке Красная Пресня,Каток в парке Красная Пресня,"г.Москва, ул. Мантулинская, 5, кор. 4",{+7 (495) 256-13-02},"{Массовое катание, Раздевалки, Кафе, Заточка коньков, Аренда коньков, Инвентарь}",https://p-kp.ru/leisure/rink/,https://vk.com/pkio_krasnayapresnya,https://www.facebook.com/PresnyaPark/,,https://www.instagram.com/red_presnya/,,http://ledokat.ru/image/original/rink/419/5d87a9cc14cea3.07346389.jpg,https://katok-v-parke-krasnaa-presna.ledokat.ru,,,{Выставочная Деловой центр},,г.Москва,55.755302,37.548923,"{http://ledokat.ru/image/original/rink/419/5d87a9ca9fb0c8.45127268.jpg, http://ledokat.ru/image/original/rink/419/5d87a9cb4c88a1.25748324.jpg}",{},,,,
Спортивный комплекс ЛЕГЕНДА,Спортивный комплекс ЛЕГЕНДА,"г.Домодедово, ул. Кирова, 30",{+7 (495) 120-11-36},"{Зона ОФП, Гимнастический зал, Массовое катание, Хоккейное катание, Фигурное катание, Раздевалки, Кафе, Парковка, Заточка коньков, Душ, Аренда коньков, Инвентарь, Медкабинет, Бесплатный Wi-Fi, Оплата картой}",https://sklegenda.ru/rink/,https://vk.com/legendadomodedovo,https://www.facebook.com/legendadomodedovo/,https://www.youtube.com/legendadomodedovo,https://www.instagram.com/legendadomodedovo/,,http://ledokat.ru/image/original/rink/520/6002eb27667b98.02510869.jpg,https://legenda-domodedovo.ledokat.ru,,,{},,г.Домодедово,55.431152,37.754404,"{http://ledokat.ru/image/original/rink/520/6002eb26ec9992.95932545.jpg, http://ledokat.ru/image/original/rink/520/6002eb26868a32.70968576.jpg}",{},,,,
Дворец спорта Багратион,Дворец спорта Багратион,"г.Можайск, ул. Мира, 15",{+7 (496) 382-36-71},"{Зона ОФП, Тренажерный зал, Гимнастический зал, Массовое катание, Хоккейное катание, Фигурное катание, Раздевалки, Кафе, Парковка, Заточка коньков, Душ, Аренда коньков, Инвентарь, Медкабинет, Бесплатный Wi-Fi, Оплата картой}",https://www.bagration-sport.ru/icearena,https://vk.com/bagrationsport,,,https://www.instagram.com/mozhaysk.bagration/,,http://ledokat.ru/image/original/rink/526/600f30f711ce16.33670572.jpg,https://bagration-mozhaisk.ledokat.ru,,,{},,г.Можайск,55.505312,36.035846,{http://ledokat.ru/image/original/rink/526/600f3105c98444.48758901.jpg},{},,,,
ЛД Солнцево,ЛД Солнцево,"г.Москва, ул. Авиаторов, 7",{+7 (495) 773-11-44},"{Тренажерный зал, Массовое катание, Хоккейное катание, Фигурное катание, Ночное катание, Раздевалки, Кафе, Заточка коньков, Душ, Инвентарь}",http://ldsolncevo.ru,,https://www.facebook.com/ldsolncevo,,https://www.instagram.com/ld_solncevo/,Новый ледовый дворец в Солнцево. Официальное открытие летом 2021,http://ledokat.ru/image/original/rink/544/606b25e77cc7a1.41157711.jpg,https://solntsevo.ledokat.ru,,,{Солнцево},,г.Москва,55.641859,37.402318,{},{},,,,
Ледовая арена им С.В.Федорова,Ледовая арена им С.В.Федорова,"г.Сергиев Посад, ул. Новоугличское шоссе, 73, кор. B",{+7 (496) 551-08-70},"{Тренажерный зал, Гимнастический зал, Массовое катание, Хоккейное катание, Фигурное катание, Раздевалки, Кафе, Парковка, Заточка коньков, Душ, Аренда коньков, Инвентарь}",https://arenasp.ru,https://vk.com/posadarena,,,https://www.instagram.com/posadarena/,,http://ledokat.ru/image/original/rink/549/6086f9afbb8d43.95405351.jpg,https://arenasp.ledokat.ru,,,{},,г.Сергиев Посад,56.333374,38.125947,"{http://ledokat.ru/image/original/rink/549/6086f9af2af395.07958455.jpg, http://ledokat.ru/image/original/rink/549/6086f9adcf0b70.96504664.jpg, http://ledokat.ru/image/original/rink/549/6086f9ac39de10.31261969.jpg}",{},,,,
Дворовый каток ул Пронская 4,Дворовый каток ул Пронская 4,"г.Москва, ул. Пронская, 4, кор. 3",{+7 (499) 796-58-73},{Массовое катание},,,,,,,http://ledokat.ru/image/original/rink/558/61271a2b209543.66620981.jpg,https://dvorpronskaya.ledokat.ru,,,{},,г.Москва,55.702318,37.844858,{},{},,,,
Спортивное сооружение ул 2-я Вольская 11с1,Спортивное сооружение ул 2-я Вольская 11с1,"г.Москва, ул. 2-я Вольская, 11, кор. с1",{+7 (495) 706-94-08},"{Массовое катание, Раздевалки, Заточка коньков, Аренда коньков}",,,,,,,http://ledokat.ru/image/original/rink/600/6130e16d2c10d4.72625681.jpg,https://dvor2javolskaja.ledokat.ru,,,{},,г.Москва,55.688735,37.925272,{},{},,,,
Ice Park в Жуковском,Ice Park в Жуковском,"г.Жуковский, ул. Молодежная, 9",{+7 (905) 500-99-98},"{Массовое катание, Хоккейное катание, Фигурное катание, Раздевалки, Кафе, Парковка, Душ, Аренда коньков, Бесплатный Wi-Fi}",https://www.ice-park.org/zhukovsky,,,,https://www.instagram.com/icepark2017/,,http://ledokat.ru/image/original/rink/19/5d1874ef8b6dc1.21302684.jpg,https://icepark-zhukovsky.ledokat.ru,,,{},,г.Жуковский,55.6030015,38.0941540,"{http://ledokat.ru/image/original/rink/19/5d1874f0eb8800.03612044.jpg, http://ledokat.ru/image/original/rink/19/5d1874ee00f4c3.98601925.jpg, http://ledokat.ru/image/original/rink/19/5d1874f068d7a0.66896159.jpg}",{},,,,
Центр хоккейной подготовки Russia Hockey,Центр хоккейной подготовки Russia Hockey,"г.Москва, ул. Ленинградский проспект, 37, кор. Б",{+7 (909) 944-66-44+7 (966) 355-33-55},"{Бросковая зона, Зона ОФП, Зона СФП, Сухой лед, Хоккейное катание, Раздевалки, Кафе, Парковка, Заточка коньков, Инвентарь}",,http://vk.com/russiahockey,,,,,http://ledokat.ru/image/original/rink/20/5d1879c06092d9.73386795.jpg,https://russia-hockey.ledokat.ru,,,{Динамо},,г.Москва,55.790200,37.544647,"{http://ledokat.ru/image/original/rink/20/5d8fd2536f45b3.27945843.jpg, http://ledokat.ru/image/original/rink/20/5d8fd253c3b888.66132728.jpg, http://ledokat.ru/image/original/rink/20/5d8fd2541cf6b3.47235361.jpg, http://ledokat.ru/image/original/rink/20/5d8fd2546591c1.92199400.jpg}",{},,,,
Каток.Ру в Горки 2,Каток.Ру в Горки 2,"г.Горки-2, ул. Горки-2, стр 23",{+7 (498) 726-20-06},"{Бросковая зона, Зона ОФП, Зона СФП, Тренажерный зал, Массовое катание, Хоккейное катание, Фигурное катание, Ночное катание, Раздевалки, Кафе, Парковка, Заточка коньков, Душ, Аренда коньков, Инвентарь, Медкабинет, Бесплатный Wi-Fi, Оплата картой}",http://katok.ru,,,,,,http://ledokat.ru/image/original/rink/63/5d34ef4c4db154.57648429.jpg,https://katokru-v-gorki-2.ledokat.ru,,,{},,г.Горки-2,55.725052,37.170463,{},{},,,,
Vegas Каширское шоссе,Vegas Каширское шоссе,"г.Москва, ул. МКАД, 24 км, 1",{+7 (495) 215-00-02},"{Массовое катание, Парковка, Заточка коньков, Аренда коньков}",http://rusled.ru/vegas-1/,,https://www.facebook.com/ledoice,,https://www.instagram.com/ledo_ice/,,http://ledokat.ru/image/original/rink/428/5d8bd50fc2eeb3.78939633.jpg,https://vegas-kashirka.ledokat.ru,,,{Домодедовская},,г.Москва,55.586807,37.724966,"{http://ledokat.ru/image/original/rink/428/5d8bd508cd2057.36307701.jpg, http://ledokat.ru/image/original/rink/428/5d8bd50872e6e5.87398918.jpg}",{},,,,
Дворовый каток ул. Беломорская 14к1,Дворовый каток ул. Беломорская 14к1,"г.Москва, ул. Беломорская, 14, кор. 1",{+7 (495) 456-10-01},{Массовое катание},,,,,,Бесплатный открытый дворовый каток,http://ledokat.ru/image/original/rink/557/612663f7746f80.43862139.jpg,https://dvorbelomorskaya.ledokat.ru,,,{},,г.Москва,55.860670,37.471486,{},{},,,,
Каток в Парке Останкино,Каток в Парке Останкино,"г.Москва, ул. 1 Останкинская, 7, кор. А",{+7 (926) 607-57-38},"{Массовое катание, Раздевалки, Заточка коньков, Аренда коньков}",https://parkseason.ru/objects/2061-katok-v-parke-ostankino/,,,,,Открытый бесплатный каток в Останкино,http://ledokat.ru/image/original/rink/559/61271ce5e36fa4.01130346.jpg,https://ostankino.ledokat.ru,,,{},,г.Москва,55.824975,37.606776,{},{},,,,
Дворовый каток ул. Молостовых 10к1,Дворовый каток ул. Молостовых 10к1,"г.Москва, ул. Молостовых, 10, кор. 1",{+7 (495) 300-14-83},{Массовое катание},,,,,,Открытый бесплатный дворовый каток,http://ledokat.ru/image/original/rink/593/612d50f187baa2.14326062.jpg,https://dvormolostovykh.ledokat.ru,,,{},,г.Москва,55.759857,37.830500,{},{},,,,
Дворовый каток ул Кастанаевская 62,Дворовый каток ул Кастанаевская 62,"г.Москва, ул. Кастанаевская, 62",{+7 (499) 146-48-80},{Массовое катание},,,,,,,http://ledokat.ru/image/original/rink/635/613234e0a39488.41700116.jpg,https://dvorkastanaevskaja.ledokat.ru,,,{},,г.Москва,55.732494,37.4599,{},{},,,,
Дворовый каток ул Кусковская 47,Дворовый каток ул Кусковская 47,"г.Москва, ул. Кусковская, 47",{+7 (495) 777-28-03},"{Массовое катание, Раздевалки, Заточка коньков, Аренда коньков}",,,,,,,http://ledokat.ru/image/original/rink/643/61323cb75cf6b0.49258340.jpg,https://dvorkuskovskaja.ledokat.ru,,,{},,г.Москва,55.744313,37.794352,{},{},,,,
Дворовый каток Можайское шоссе 4к1,Дворовый каток Можайское шоссе 4к1,"г.Москва, ул. Можайское шоссе, 4, кор. 1",{+7 (495) 447-15-60},{Массовое катание},,,,,,,http://ledokat.ru/image/original/rink/653/6132457617aa41.00953094.jpg,https://mozhajskoeshosse.ledokat.ru,,,{},,г.Москва,55.723146,37.44373,{},{},,,,
Ледовый дворец Умка,Ледовый дворец Умка,"г.Москва, ул. Левобережная, 12, кор. 1",{+7 (499) 458-10-84},"{Зона ОФП, Тренажерный зал, Гимнастический зал, Хоккейное катание, Фигурное катание, Раздевалки, Кафе, Заточка коньков, Душ, Аренда коньков, Инвентарь}",http://umkabm.ru,https://vk.com/belye_medvedi_msk,,https://www.youtube.com/channel/UChZGrMt2siYm1kvdCtoLtUg,https://www.instagram.com/belye.medvedi/,"Ледовый дворец Умка расположен на севере Москвы в Ховрино и является базой для Спортивной школы олимпийского резерва № 1 Департамента спорта города Москвы. В Ледовом дворце тренируется Хоккейный клуб «Белые Медведи», а также есть детская школа фигурного катания и команда по следж-хоккею. Обучение детей по хоккею и фигурному катанию ведут заслуженные тренеры России, мастера спорта и мастера спорта международного класса. Для детей различного возраста проводятся занятия в группе с тренером на льду, а также занятия по ОФП.

В Ледовом дворце Умка также  организовано проведение физкультурных, спортивных и спортивно-зрелищных мероприятий. Возможен прокат и заточка коньков и другие дополнительные сервисы.",http://ledokat.ru/image/original/rink/2/5d17d7fb89c211.72216564.jpg,https://umka.ledokat.ru,,,{Ховрино},,г.Москва,55.878495,37.471264,{http://ledokat.ru/image/original/rink/2/5d17d7fabff366.32998361.jpg},{},,,,
Южный Лед,Южный Лед,"г.Москва, ул. Маршала Савицкого, 7",{+7 (495) 796-41-32+7 (977) 895-82-05},"{Бросковая зона, Зона ОФП, Зона СФП, Сухой лед, Тренажерный зал, Гимнастический зал, Хоккейная беговая дорожка, Массовое катание, Хоккейное катание, Фигурное катание, Раздевалки, Кафе, Парковка, Заточка коньков, Душ, Аренда коньков, Инвентарь, Медкабинет, Оплата картой}",http://southarena.ru,https://vk.com/southarena,https://www.facebook.com/southarena.hockey,https://www.youtube.com/channel/UCyAy74Gpfrmrubp2bQ4Fp6A,https://www.instagram.com/south_arena_moscow/,"Южный лед - большой современный многофункциональный ледовый спортивно-тренировочный комплекс, отвечающий современным требованиям для проведения спортивных мероприятий любой сложности. Южный лед расположен на юге Москвы, включает три полноценные ледовые арены размерами 60х30 м., 56х26 м. и 56х26 м. Южный лед имеет все необходимое для тренировок, индивидуальных занятий и проведения соревнований для хоккеистов и фигуристов. 

В комплексе Южный лед есть полноценный тренировочный хоккейный центр, который включает в себя зоны по функциональной, силовой и кардио подготовке. Южный лед располагает специализированной хоккейной беговой дорожкой, оснащенной системой по видеонализу DartFish. К услугам взрослых и юных любителей хоккея также бросковый тренажер «Заряд». Кроме того, для оттачивания техники владения клюшкой, есть бросковые зоны и зоны дриблинга. Спортивное оборудование и тренажеры, используемые в тренировочном процессе, позволяют тренировать игроков различного возраста и уровня подготовки.

Южный лед имеет все необходимое для проведения сезонных сборов для хоккейных и фигурных клубов и школ, предоставляет услуги аренды льда и других спортивных зон. Комплекс открыт для любителей и профессионалов, для детей и взрослых. Есть заточка и прокат коньков, удобные и комфортабельные раздевалки и кафе. 

В комплексе работают несколько школ по хоккею и фигурному катанию, проходят тренировки для детей и взрослых от начального до профессионального уровня подготовки: команды по хоккею Морские Львы, ЦХР Шаг вперед, а также ДЮСШ Стерх, школы фигурного катания Академия спорта, Школа лед и другие. 

Тренеры по хоккею и фигурному катанию обладают высокой квалификацией и опытом и помогут повысить индивидуальный уровень мастерства как взрослым так и детям.",http://ledokat.ru/image/original/rink/11/5d186ef5e122f0.30866451.jpg,https://southarena.ledokat.ru,,,{Аннино Бульвар Дмитрия Донского},,г.Москва,55.506194,37.585916,"{http://ledokat.ru/image/original/rink/11/5d186efa056f08.94861986.jpg, http://ledokat.ru/image/original/rink/11/5d186ef7b36356.76789219.jpg, http://ledokat.ru/image/original/rink/11/5d186ef93609a7.38959448.jpg}",{},,,,
ЛК Арена Морозово,ЛК Арена Морозово,"г.Москва, ул. Новоостаповская, 5, кор. 2",{+7 (495) 287-31-75+7 (499) 301-02-03},"{Гимнастический зал, Массовое катание, Хоккейное катание, Фигурное катание, Раздевалки, Кафе, Парковка, Заточка коньков, Душ, Аренда коньков, Инвентарь, Бесплатный Wi-Fi}",http://www.arenamorozovo.ru,https://vk.com/arenamorozovo,https://www.facebook.com/arenamorozovo,,https://www.instagram.com/arenamorozovo/,,http://ledokat.ru/image/original/rink/32/5d222b2b6882c8.08730347.jpg,https://arena-morozovo.ledokat.ru,,,{Дубровка},,г.Москва,55.723486,37.677463,"{http://ledokat.ru/image/original/rink/32/5d222b2aae34a1.19953004.jpg, http://ledokat.ru/image/original/rink/32/5d222b2925bb26.23422399.jpg, http://ledokat.ru/image/original/rink/32/5d222b297cb3c4.51761546.jpg, http://ledokat.ru/image/original/rink/32/5d222b29d48ea8.74924195.jpg}",{},,,,
Мегаспорт,Мегаспорт,"г.Москва, ул. Ходынский бульвар, 3",{+7 (495) 643-18-18},"{Массовое катание, Хоккейное катание, Фигурное катание, Раздевалки, Кафе, Парковка, Заточка коньков, Душ, Аренда коньков, Инвентарь, Медкабинет}",http://www.hockey-palace.ru/,https://vk.com/ds_megasport,https://www.facebook.com/megasport.ds/,https://www.youtube.com/channel/UCfflQRoO3DlusY7mq1OPvMQ,https://www.instagram.com/ds_megasport,,http://ledokat.ru/image/original/rink/38/5d34769aee0c73.61985180.jpg,https://megasport.ledokat.ru,,,{ЦСКА},,г.Москва,55.786698,37.539886,"{http://ledokat.ru/image/original/rink/38/5d347698d0cde6.45905229.jpg, http://ledokat.ru/image/original/rink/38/5d34768dccc643.80808435.jpg}",{},,,,
Vegas Кунцево,Vegas Кунцево,"г.Немчиновка, ул. Хорошёвский пр., 14",{+7 (495) 215-00-02},"{Массовое катание, Фигурное катание, Кафе, Парковка, Заточка коньков, Аренда коньков}",http://rusled.ru/vegas-3/,,https://www.facebook.com/ledoice,,https://www.instagram.com/ledo_ice/,,http://ledokat.ru/image/original/rink/427/5d8bd2eb710f59.22165114.jpg,https://vegas-kuntsevo.ledokat.ru,,,{},,г.Немчиновка,55.720413,37.378782,"{http://ledokat.ru/image/original/rink/427/5d8bd2b3b56844.53137177.jpg, http://ledokat.ru/image/original/rink/427/5d8bd2b5507440.25716305.jpg}",{},,,,
Спортивный комплекс образовательного учреждения ул Учинская 10,Спортивный комплекс образовательного учреждения ул Учинская 10,"г.Москва, ул. Учинская, 10",{+7 (495) 484-99-44},"{Массовое катание, Раздевалки, Заточка коньков}",,,,,,Открытый бесплатный дворовый каток,http://ledokat.ru/image/original/rink/579/612a0e1a99e049.56306558.jpg,https://dvoruchinskaia.ledokat.ru,,,{},,г.Москва,55.885181,37.537128,{},{},,,,
Дворовый каток пр-т Мира 185к2,Дворовый каток пр-т Мира 185к2,"г.Москва, ул. Проспект Мира, 185, кор. 2",{+7 (495) 602-85-34},"{Массовое катание, Раздевалки, Заточка коньков}",,,,,,Открытый бесплатный дворовый каток,http://ledokat.ru/image/original/rink/584/612a159bbf1bf3.66918976.jpg,https://dvormira.ledokat.ru,,,{},,г.Москва,55.840548,37.659231,{},{},,,,
Каток Екатерининский парк,Каток Екатерининский парк,"г.Москва, ул. Большая Екатерининская, 27",{+7 (495) 600-63-91},{Массовое катание},,,,,,,http://ledokat.ru/image/original/rink/610/613207bb8dae27.23334294.jpg,https://katokekaterininskijpark.ledokat.ru,,,{},,г.Москва,55.784005,37.621723,{},{},,,,
Каток Природно-исторический парк Тушинский,Каток Природно-исторический парк Тушинский,"г.Москва, ул. Вилиса Лациса, 26, кор. 1",{+7 (499) 739-27-05},{Массовое катание},,,,,,,http://ledokat.ru/image/original/rink/617/61321747166985.18280308.jpg,https://katokprirodno-istoricheskijparktushinski.ledokat.ru,,,{},,г.Москва,55.862383,37.412119,{},{},,,,
Дворовый каток Волоколамский проезд  5к1,Дворовый каток Волоколамский проезд  5к1,"г.Москва, ул. Волоколамский проезд, 5, кор. 1",{+7 (499) 492-29-36},{Массовое катание},,,,,,,http://ledokat.ru/image/original/rink/619/613219cd2eec90.26413766.jpg,https://dvorvolokolamskijproezd.ledokat.ru,,,{},,г.Москва,55.827459,37.432591,{},{},,,,
Ice Park на Профсоюзной,Ice Park на Профсоюзной,"г.Москва, ул. Кржижановского, 31",{+7 (926) 147-54-45+7 (965) 147-54-45},"{Бросковая зона, Зона ОФП, Гимнастический зал, Хоккейное катание, Фигурное катание, Раздевалки, Кафе, Парковка, Душ, Инвентарь, Бесплатный Wi-Fi}",https://www.ice-park.org/profsoyuznaya,,,,https://www.instagram.com/icepark2017/,,http://ledokat.ru/image/original/rink/18/5d1873dba42374.13855274.jpg,https://icepark-profsoyuznaya.ledokat.ru,,,{Профсоюзная},,г.Москва,55.6742479,37.5813909,"{http://ledokat.ru/image/original/rink/18/5d1873de6e1412.54107526.jpg, http://ledokat.ru/image/original/rink/18/5d1873dce62948.66369500.jpg, http://ledokat.ru/image/original/rink/18/5d1873dc639454.85223217.jpg}",{},,,,
MEGA ICE ТЦ Авиапарк,MEGA ICE ТЦ Авиапарк,"г.Москва, ул. Ходынский бульвар, 4",{+7 (499) 270-01-89+7 (926) 753-46-88},"{Массовое катание, Хоккейное катание, Фигурное катание, Кафе, Парковка, Заточка коньков, Аренда коньков, Бесплатный Wi-Fi, Оплата картой}",http://мега-айс.рф,https://vk.com/megaicel,https://www.facebook.com/megaicekatok/,,https://www.instagram.com/mega_ice_rink/,"Небольшой крытый каток на 4 этаже ТЦ Авиапарк на Ходынском поле г. Москвы. На катке проводятся массовые катания. Организован прокат и заточка коньков. В прокате имеется широкий размерный ряд коньков. Коньки предоставляются как фигурные, так и хоккейные.  В прокат можно также взять комплекты защиты и «помощников для катания на коньках» (пингвинов и котиков). Для хранения сумок в павильонах катка открыты специальные ячейки.  

На катке «Mega Ice ТЦ Авиапарк» также работают группы фигурного катания и занятий по хоккею для детей всех возрастов от 4-х лет под руководством опытных тренеров. Возможно также проведение индивидуальных занятий с тренером как для детей, так и для взрослых. Лед сдается в аренду для проведения мероприятий и праздников – роматническое свидание, свадьба, детские праздники и любые другие мероприятия. 

Каток «Mega Ice ТЦ Авиапарк» предлагает гибкую систему абонементов на индивидуальные занятия, занятия в мини-группах на различное количество посещений. Предоставляются льготы и скидки.",http://ledokat.ru/image/original/rink/385/5d3cad41b7d763.47558419.jpg,https://mega-ice-aviapark.ledokat.ru,,,{ЦСКА},,г.Москва,55.790458,37.531011,"{http://ledokat.ru/image/original/rink/385/5d3cacf2cc0375.71238645.jpg, http://ledokat.ru/image/original/rink/385/5d3cacf3949e63.98661187.jpg, http://ledokat.ru/image/original/rink/385/5d3cacf3575419.53463943.jpg, http://ledokat.ru/image/original/rink/385/5d3cad40aaaa93.68591586.jpg}",{},,,,
Каток Искра,Каток Искра,"г.Москва, ул. Сельскохозяйственная, 26, кор. стр 2",{+7 (499) 181-36-14+7 (499) 181-54-03+7 (499) 181-54-93},"{Массовое катание, Раздевалки, Парковка}",http://katokmoscow.ru,http://vk.com/katokmoscow,,,http://instagram.com/katok.iskra,,http://ledokat.ru/image/original/rink/422/5d87e0429eb047.25233249.jpg,https://katok-iskra.ledokat.ru,,,{},,г.Москва,55.83892,37.639437,"{http://ledokat.ru/image/original/rink/422/5d87df6771ce72.08555858.jpg, http://ledokat.ru/image/original/rink/422/5d87df7aa35b72.62924275.jpg}",{},,,,
СК Арктика,СК Арктика,"г.Москва, ул. Новоорловская, 7, кор. а",{+7 (901) 369-97-02},"{Бросковая зона, Зона ОФП, Тренажерный зал, Гимнастический зал, Хоккейное катание, Фигурное катание, Раздевалки, Кафе, Парковка, Заточка коньков, Душ, Инвентарь}",https://arcticsport.ru,https://vk.com/id629449630,https://www.facebook.com/arctica.sport.1,,https://www.instagram.com/infoarctica,,http://ledokat.ru/image/original/rink/537/603e330b2dbd77.83162004.jpg,https://sk-arktika.ledokat.ru,,,{Новопеределкино},,г.Москва,55.632607,37.368770,{},{},,,,https://twitter.com/ArcticaSport
Каток с искусственным льдом Задонский проезд 3Ас3,Каток с искусственным льдом Задонский проезд 3Ас3,"г.Москва, ул. Задонский проезд, 3, кор. Ас3",{+7 (495) 276-12-17},"{Массовое катание, Раздевалки, Заточка коньков, Аренда коньков}",,,,,,Открытый бесплатный дворовый каток,http://ledokat.ru/image/original/rink/570/6128ec6d55c931.56964142.jpg,https://dvorzadonski.ledokat.ru,,,{},,г.Москва,55.627422,37.756182,{},{},,,,
